{
"type": "FeatureCollection",
"name": "places_frankford_north",
"crs": { "type": "name", "properties": { "name": "urn:ogc:def:crs:OGC:1.3:CRS84" } },
"features": [
{ "type": "Feature", "properties": { "name": "100K House", "place_id": "ChIJ_4509j3IxokRe19LjEAOadw", "vicinity": "2100 East Susquehanna Avenue, Philadelphia", "types": "c(\"plumber\", \"point_of_interest\", \"establishment\")", "business_status": null, "weekday_text": null, "open_24h": null, "open_0": null, "open_1": null, "open_2": null, "open_4": null, "open_5": null, "open_6": null, "open_3": null, "close_0": null, "close_1": null, "close_2": null, "close_4": null, "close_5": null, "close_6": null, "close_3": null }, "geometry": { "type": "Point", "coordinates": [ -75.13096, 39.9811104 ] } },
{ "type": "Feature", "properties": { "name": "AWS Design & Fabrication", "place_id": "ChIJRxDidzHJxokR2Tufslrtk00", "vicinity": "2132 East Arizona Street, Philadelphia", "types": "c(\"point_of_interest\", \"establishment\")", "business_status": "OPERATIONAL", "weekday_text": "Monday: 10:00 AM – 6:00 PM; Tuesday: 10:00 AM – 6:00 PM; Wednesday: 10:00 AM – 6:00 PM; Thursday: 10:00 AM – 6:00 PM; Friday: Closed; Saturday: Closed; Sunday: Closed", "open_24h": false, "open_0": null, "open_1": "1000", "open_2": "1000", "open_4": "1000", "open_5": null, "open_6": null, "open_3": "1000", "close_0": null, "close_1": "1800", "close_2": "1800", "close_4": "1800", "close_5": null, "close_6": null, "close_3": "1800" }, "geometry": { "type": "Point", "coordinates": [ -75.1284282, 39.9815178 ] } },
{ "type": "Feature", "properties": { "name": "Abby Ryan Design", "place_id": "ChIJ-VUGpj3IxokRJ7l3WHIjs7U", "vicinity": "2164 East Cumberland Street, Philadelphia", "types": "c(\"point_of_interest\", \"establishment\")", "business_status": null, "weekday_text": null, "open_24h": null, "open_0": null, "open_1": null, "open_2": null, "open_4": null, "open_5": null, "open_6": null, "open_3": null, "close_0": null, "close_1": null, "close_2": null, "close_4": null, "close_5": null, "close_6": null, "close_3": null }, "geometry": { "type": "Point", "coordinates": [ -75.1249729, 39.9819159 ] } },
{ "type": "Feature", "properties": { "name": "Alchemy Birth and Wellness", "place_id": "ChIJg7-EsD3IxokRN5FY1QWa1Q0", "vicinity": "2316 East Norris Street, Philadelphia", "types": "c(\"point_of_interest\", \"health\", \"establishment\")", "business_status": "OPERATIONAL", "weekday_text": "Monday: 8:30 – 10:00 AM, 1:00 – 4:00 PM; Tuesday: 8:30 AM – 12:00 PM, 1:00 – 4:00 PM; Wednesday: 8:30 – 10:00 AM, 1:00 – 3:00 PM; Thursday: 8:30 AM – 4:00 PM; Friday: Closed; Saturday: Closed; Sunday: Closed", "open_24h": false, "open_0": null, "open_1": "0830;1300;0830;1300", "open_2": "0830;1300;0830;1300", "open_4": "0830", "open_5": null, "open_6": null, "open_3": "0830;1300;0830;1300", "close_0": null, "close_1": "1000;1000;1600;1600", "close_2": "1200;1200;1600;1600", "close_4": "1600", "close_5": null, "close_6": null, "close_3": "1000;1000;1500;1500" }, "geometry": { "type": "Point", "coordinates": [ -75.129164, 39.9776396 ] } },
{ "type": "Feature", "properties": { "name": "Alma Acupuncture", "place_id": "ChIJL_R233HIxokR8n0UaZ-H7FM", "vicinity": "1856 Frankford Avenue, Philadelphia", "types": "c(\"point_of_interest\", \"health\", \"establishment\")", "business_status": "OPERATIONAL", "weekday_text": "Monday: 2:00 – 6:00 PM; Tuesday: 1:00 – 7:00 PM; Wednesday: 1:00 – 6:00 PM; Thursday: 1:00 – 7:00 PM; Friday: 11:00 AM – 6:00 PM; Saturday: 9:00 AM – 1:00 PM; Sunday: 9:00 AM – 2:00 PM", "open_24h": false, "open_0": "0900", "open_1": "1400", "open_2": "1300", "open_4": "1300", "open_5": "1100", "open_6": "0900", "open_3": "1300", "close_0": "1400", "close_1": "1800", "close_2": "1900", "close_4": "1900", "close_5": "1800", "close_6": "1300", "close_3": "1800" }, "geometry": { "type": "Point", "coordinates": [ -75.1309967, 39.9782804 ] } },
{ "type": "Feature", "properties": { "name": "Amy's Pastelillos", "place_id": "ChIJpZv9XADJxokRKniBluNUXhk", "vicinity": "2001 Memphis Street, Philadelphia", "types": "c(\"restaurant\", \"food\", \"point_of_interest\", \"establishment\")", "business_status": "OPERATIONAL", "weekday_text": "Monday: Closed; Tuesday: Closed; Wednesday: 11:00 AM – 3:00 PM; Thursday: 11:00 AM – 3:00 PM; Friday: 11:00 AM – 7:30 PM; Saturday: 11:00 AM – 3:00 PM; Sunday: Closed", "open_24h": false, "open_0": null, "open_1": null, "open_2": null, "open_4": "1100", "open_5": "1100", "open_6": "1100", "open_3": "1100", "close_0": null, "close_1": null, "close_2": null, "close_4": "1500", "close_5": "1930", "close_6": "1500", "close_3": "1500" }, "geometry": { "type": "Point", "coordinates": [ -75.1284116, 39.9775233 ] } },
{ "type": "Feature", "properties": { "name": "Animal Vegetable Mineral", "place_id": "ChIJh50ndz3IxokRryiKE_0K29c", "vicinity": "2041 East Dauphin Street, Philadelphia", "types": "c(\"jewelry_store\", \"clothing_store\", \"store\", \"point_of_interest\", \"establishment\")", "business_status": "OPERATIONAL", "weekday_text": "Monday: 9:00 AM – 5:00 PM; Tuesday: 9:00 AM – 5:00 PM; Wednesday: 9:00 AM – 5:00 PM; Thursday: 9:00 AM – 5:00 PM; Friday: 9:00 AM – 5:00 PM; Saturday: Closed; Sunday: Closed", "open_24h": false, "open_0": null, "open_1": "0900", "open_2": "0900", "open_4": "0900", "open_5": "0900", "open_6": null, "open_3": "0900", "close_0": null, "close_1": "1700", "close_2": "1700", "close_4": "1700", "close_5": "1700", "close_6": null, "close_3": "1700" }, "geometry": { "type": "Point", "coordinates": [ -75.1303041, 39.9827798 ] } },
{ "type": "Feature", "properties": { "name": "Arcadia Commons", "place_id": "ChIJrdqqqCTIxokRnjgPIeIxvkE", "vicinity": "2555-2557 Kern Street, Philadelphia", "types": "c(\"park\", \"point_of_interest\", \"establishment\")", "business_status": null, "weekday_text": null, "open_24h": null, "open_0": null, "open_1": null, "open_2": null, "open_4": null, "open_5": null, "open_6": null, "open_3": null, "close_0": null, "close_1": null, "close_2": null, "close_4": null, "close_5": null, "close_6": null, "close_3": null }, "geometry": { "type": "Point", "coordinates": [ -75.1249873, 39.984961 ] } },
{ "type": "Feature", "properties": { "name": "Atlantis: The Lost Bar", "place_id": "ChIJAevHjDzIxokRyPfgBTMIz08", "vicinity": "2442 Frankford Avenue, Philadelphia", "types": "c(\"bar\", \"point_of_interest\", \"establishment\")", "business_status": "OPERATIONAL", "weekday_text": "Monday: 12:30 PM – 2:00 AM; Tuesday: 12:30 PM – 2:00 AM; Wednesday: 12:30 PM – 2:00 AM; Thursday: 12:30 PM – 2:00 AM; Friday: 12:30 PM – 2:00 AM; Saturday: 12:30 PM – 2:00 AM; Sunday: 12:30 PM – 2:00 AM", "open_24h": false, "open_0": "1230", "open_1": "1230", "open_2": "1230", "open_4": "1230", "open_5": "1230", "open_6": "1230", "open_3": "1230", "close_0": "0200", "close_1": "0200", "close_2": "0200", "close_4": "0200", "close_5": "0200", "close_6": "0200", "close_3": "0200" }, "geometry": { "type": "Point", "coordinates": [ -75.1267577, 39.982501 ] } },
{ "type": "Feature", "properties": { "name": "BAR ilu", "place_id": "ChIJQbdyRQDJxokRDDh32PaUqu4", "vicinity": "2118 East Dauphin Street, Philadelphia", "types": "c(\"bar\", \"restaurant\", \"food\", \"point_of_interest\", \"establishment\")", "business_status": "OPERATIONAL", "weekday_text": "Monday: Closed; Tuesday: 4:00 PM – 12:00 AM; Wednesday: 4:00 PM – 12:00 AM; Thursday: 4:00 PM – 12:00 AM; Friday: 4:00 PM – 1:00 AM; Saturday: 4:00 PM – 1:00 AM; Sunday: 4:00 PM – 12:00 AM", "open_24h": true, "open_0": "1600", "open_1": "NA", "open_2": "1600", "open_4": "1600", "open_5": "1600", "open_6": "1600", "open_3": "1600", "close_0": "0100", "close_1": "0000", "close_2": "NA", "close_4": "0000", "close_5": "0000", "close_6": "0100", "close_3": "0000" }, "geometry": { "type": "Point", "coordinates": [ -75.1294314, 39.9812978 ] } },
{ "type": "Feature", "properties": { "name": "Benny's Cheesesteaks", "place_id": "ChIJ7dmxWETJxokRk8Lx-1N_TNc", "vicinity": "1873 Frankford Avenue, Philadelphia", "types": "c(\"restaurant\", \"food\", \"point_of_interest\", \"establishment\")", "business_status": "OPERATIONAL", "weekday_text": "Monday: Closed; Tuesday: 12:00 – 8:00 PM; Wednesday: 12:00 – 9:00 PM; Thursday: 12:00 – 9:00 PM; Friday: 12:00 – 10:00 PM; Saturday: 12:00 – 10:00 PM; Sunday: 12:00 – 8:00 PM", "open_24h": false, "open_0": "1200", "open_1": null, "open_2": "1200", "open_4": "1200", "open_5": "1200", "open_6": "1200", "open_3": "1200", "close_0": "2000", "close_1": null, "close_2": "2000", "close_4": "2100", "close_5": "2200", "close_6": "2200", "close_3": "2100" }, "geometry": { "type": "Point", "coordinates": [ -75.1303562, 39.9784138 ] } },
{ "type": "Feature", "properties": { "name": "CAKE&JOE Fishtown", "place_id": "ChIJB3qeOJzJxokRbjs1NdzaBxA", "vicinity": "2012 Frankford Avenue, Philadelphia", "types": "c(\"bakery\", \"cafe\", \"restaurant\", \"food\", \"point_of_interest\", \"store\", \"establishment\")", "business_status": "OPERATIONAL", "weekday_text": "Monday: 8:00 AM – 8:00 PM; Tuesday: 8:00 AM – 8:00 PM; Wednesday: 8:00 AM – 8:00 PM; Thursday: 8:00 AM – 8:00 PM; Friday: 8:00 AM – 8:00 PM; Saturday: 8:00 AM – 8:00 PM; Sunday: 8:00 AM – 8:00 PM", "open_24h": false, "open_0": "0800", "open_1": "0800", "open_2": "0800", "open_4": "0800", "open_5": "0800", "open_6": "0800", "open_3": "0800", "close_0": "2000", "close_1": "2000", "close_2": "2000", "close_4": "2000", "close_5": "2000", "close_6": "2000", "close_3": "2000" }, "geometry": { "type": "Point", "coordinates": [ -75.1302524, 39.9790846 ] } },
{ "type": "Feature", "properties": { "name": "CEX Agency", "place_id": "ChIJKfHrbT7IxokRNiXKSrDST68", "vicinity": "2037 Frankford Avenue, Philadelphia", "types": "c(\"point_of_interest\", \"establishment\")", "business_status": "OPERATIONAL", "weekday_text": "Monday: 9:00 AM – 5:00 PM; Tuesday: 9:00 AM – 5:00 PM; Wednesday: 9:00 AM – 5:00 PM; Thursday: 9:00 AM – 5:00 PM; Friday: 9:00 AM – 5:00 PM; Saturday: Closed; Sunday: Closed", "open_24h": false, "open_0": null, "open_1": "0900", "open_2": "0900", "open_4": "0900", "open_5": "0900", "open_6": null, "open_3": "0900", "close_0": null, "close_1": "1700", "close_2": "1700", "close_4": "1700", "close_5": "1700", "close_6": null, "close_3": "1700" }, "geometry": { "type": "Point", "coordinates": [ -75.129534, 39.979255599999988 ] } },
{ "type": "Feature", "properties": { "name": "Caletta", "place_id": "ChIJwZSPh6fJxokRAmFvY5FRi5I", "vicinity": "1401 East Susquehanna Avenue, Philadelphia", "types": "c(\"bar\", \"point_of_interest\", \"establishment\")", "business_status": "OPERATIONAL", "weekday_text": "Monday: Closed; Tuesday: Closed; Wednesday: 4:00 – 10:00 PM; Thursday: 4:00 – 11:00 PM; Friday: 4:00 – 11:00 PM; Saturday: 4:00 – 11:00 PM; Sunday: 4:00 – 10:00 PM", "open_24h": false, "open_0": "1600", "open_1": null, "open_2": null, "open_4": "1600", "open_5": "1600", "open_6": "1600", "open_3": "1600", "close_0": "2200", "close_1": null, "close_2": null, "close_4": "2300", "close_5": "2300", "close_6": "2300", "close_3": "2200" }, "geometry": { "type": "Point", "coordinates": [ -75.1263919, 39.9752678 ] } },
{ "type": "Feature", "properties": { "name": "Carroll Couture Cuisine, LLC", "place_id": "ChIJ01-3q9G5t4kRhF2XXmxDNUc", "vicinity": "2009 East Arizona Street, Philadelphia", "types": "c(\"food\", \"point_of_interest\", \"establishment\")", "business_status": "OPERATIONAL", "weekday_text": "Monday: 10:00 AM – 5:00 PM; Tuesday: 10:00 AM – 5:00 PM; Wednesday: 10:00 AM – 5:00 PM; Thursday: 10:00 AM – 5:00 PM; Friday: 10:00 AM – 5:00 PM; Saturday: Closed; Sunday: Closed", "open_24h": false, "open_0": null, "open_1": "1000", "open_2": "1000", "open_4": "1000", "open_5": "1000", "open_6": null, "open_3": "1000", "close_0": null, "close_1": "1700", "close_2": "1700", "close_4": "1700", "close_5": "1700", "close_6": null, "close_3": "1700" }, "geometry": { "type": "Point", "coordinates": [ -75.130209, 39.9837491 ] } },
{ "type": "Feature", "properties": { "name": "Casa Borinquena", "place_id": "ChIJw4JC1XTJxokRQQfKcMt8TFU", "vicinity": "2557 Amber Street, Philadelphia", "types": "c(\"restaurant\", \"food\", \"point_of_interest\", \"establishment\")", "business_status": "OPERATIONAL", "weekday_text": "Monday: Closed; Tuesday: 12:00 – 8:09 PM; Wednesday: 12:00 – 8:00 PM; Thursday: 12:00 – 8:00 PM; Friday: 12:00 – 9:00 PM; Saturday: 12:00 – 9:00 PM; Sunday: 11:00 AM – 8:00 PM", "open_24h": false, "open_0": "1100", "open_1": null, "open_2": "1200", "open_4": "1200", "open_5": "1200", "open_6": "1200", "open_3": "1200", "close_0": "2000", "close_1": null, "close_2": "2009", "close_4": "2000", "close_5": "2100", "close_6": "2100", "close_3": "2000" }, "geometry": { "type": "Point", "coordinates": [ -75.1244483, 39.9844565 ] } },
{ "type": "Feature", "properties": { "name": "Cedar Point Bar & Kitchen", "place_id": "ChIJxb6hBD_IxokR6p8WNANdVqw", "vicinity": "2370 East Norris Street, Philadelphia", "types": "c(\"bar\", \"restaurant\", \"food\", \"point_of_interest\", \"establishment\")", "business_status": "OPERATIONAL", "weekday_text": "Monday: 12:00 – 11:00 PM; Tuesday: 12:00 – 11:00 PM; Wednesday: 12:00 – 11:00 PM; Thursday: 12:00 – 11:00 PM; Friday: 12:00 PM – 12:00 AM; Saturday: 10:00 AM – 12:00 AM; Sunday: 10:00 AM – 10:00 PM", "open_24h": true, "open_0": "1000;1000", "open_1": "1200", "open_2": "1200", "open_4": "1200", "open_5": "1200", "open_6": "1000", "open_3": "1200", "close_0": "2200;0000", "close_1": "2300", "close_2": "2300", "close_4": "2300", "close_5": "NA", "close_6": "0000", "close_3": "2300" }, "geometry": { "type": "Point", "coordinates": [ -75.1277333, 39.9768472 ] } },
{ "type": "Feature", "properties": { "name": "Chilango Taco", "place_id": "ChIJO2cpUwDJxokRRv9t4DiBLuc", "vicinity": "2120 East Hagert Street, Philadelphia", "types": "c(\"restaurant\", \"food\", \"point_of_interest\", \"establishment\")", "business_status": null, "weekday_text": null, "open_24h": null, "open_0": null, "open_1": null, "open_2": null, "open_4": null, "open_5": null, "open_6": null, "open_3": null, "close_0": null, "close_1": null, "close_2": null, "close_4": null, "close_5": null, "close_6": null, "close_3": null }, "geometry": { "type": "Point", "coordinates": [ -75.1271662, 39.982421499999987 ] } },
{ "type": "Feature", "properties": { "name": "Circle Thrift", "place_id": "ChIJ2ckkPj7IxokROKJnVyiRTgw", "vicinity": "2233 Frankford Avenue, Philadelphia", "types": "c(\"store\", \"point_of_interest\", \"establishment\")", "business_status": "OPERATIONAL", "weekday_text": "Monday: Closed; Tuesday: 10:00 AM – 5:00 PM; Wednesday: 10:00 AM – 5:00 PM; Thursday: 10:00 AM – 5:00 PM; Friday: 10:00 AM – 5:00 PM; Saturday: 10:00 AM – 5:00 PM; Sunday: 10:00 AM – 5:00 PM", "open_24h": false, "open_0": "1000", "open_1": null, "open_2": "1000", "open_4": "1000", "open_5": "1000", "open_6": "1000", "open_3": "1000", "close_0": "1700", "close_1": null, "close_2": "1700", "close_4": "1700", "close_5": "1700", "close_6": "1700", "close_3": "1700" }, "geometry": { "type": "Point", "coordinates": [ -75.1285852, 39.9802918 ] } },
{ "type": "Feature", "properties": { "name": "Cloud 9 Clay", "place_id": "ChIJpdXIHi3JxokRzX9jV0Eo0dM", "vicinity": "2527 Frankford Avenue, Philadelphia", "types": "c(\"clothing_store\", \"store\", \"point_of_interest\", \"establishment\")", "business_status": "OPERATIONAL", "weekday_text": "Monday: Closed; Tuesday: Closed; Wednesday: 11:00 AM – 6:00 PM; Thursday: 11:00 AM – 6:00 PM; Friday: 11:00 AM – 6:00 PM; Saturday: 10:00 AM – 5:00 PM; Sunday: 10:00 AM – 5:00 PM", "open_24h": false, "open_0": "1000", "open_1": null, "open_2": null, "open_4": "1100", "open_5": "1100", "open_6": "1000", "open_3": "1100", "close_0": "1700", "close_1": null, "close_2": null, "close_4": "1800", "close_5": "1800", "close_6": "1700", "close_3": "1800" }, "geometry": { "type": "Point", "coordinates": [ -75.1250886, 39.9837378 ] } },
{ "type": "Feature", "properties": { "name": "Cloud Cups Fishtown", "place_id": "ChIJcbH50w_JxokR9pVZjUYgWs4", "vicinity": "2311 Frankford Avenue, Philadelphia", "types": "c(\"food\", \"store\", \"point_of_interest\", \"establishment\")", "business_status": "OPERATIONAL", "weekday_text": "Monday: Closed; Tuesday: Closed; Wednesday: 1:00 – 9:00 PM; Thursday: 1:00 – 9:00 PM; Friday: 1:00 – 10:00 PM; Saturday: 1:00 – 10:00 PM; Sunday: 1:00 – 9:00 PM", "open_24h": false, "open_0": "1300", "open_1": null, "open_2": null, "open_4": "1300", "open_5": "1300", "open_6": "1300", "open_3": "1300", "close_0": "2100", "close_1": null, "close_2": null, "close_4": "2100", "close_5": "2200", "close_6": "2200", "close_3": "2100" }, "geometry": { "type": "Point", "coordinates": [ -75.128152, 39.9806634 ] } },
{ "type": "Feature", "properties": { "name": "Commonwealth Ciders", "place_id": "ChIJveOL8zzIxokRNsp_VIrCULM", "vicinity": "2440 Frankford Avenue, Philadelphia", "types": "c(\"bar\", \"food\", \"store\", \"point_of_interest\", \"establishment\")", "business_status": "OPERATIONAL", "weekday_text": "Monday: 11:00 AM – 11:00 PM; Tuesday: 11:00 AM – 11:00 PM; Wednesday: 11:00 AM – 12:00 AM; Thursday: 11:00 AM – 12:00 AM; Friday: 11:00 AM – 12:00 AM; Saturday: 11:00 AM – 12:00 AM; Sunday: 11:00 AM – 11:00 PM", "open_24h": true, "open_0": "1100;1100", "open_1": "1100", "open_2": "1100", "open_4": "1100", "open_5": "1100", "open_6": "1100", "open_3": "1100", "close_0": "2300;0000", "close_1": "2300", "close_2": "2300", "close_4": "0000", "close_5": "0000", "close_6": "0000", "close_3": "NA" }, "geometry": { "type": "Point", "coordinates": [ -75.1274706, 39.982547 ] } },
{ "type": "Feature", "properties": { "name": "Cook and Shaker", "place_id": "ChIJ-7DBmjrIxokR1tcnGGm4Ntw", "vicinity": "2301 East Albert Street, Philadelphia", "types": "c(\"bar\", \"restaurant\", \"food\", \"point_of_interest\", \"establishment\")", "business_status": "OPERATIONAL", "weekday_text": "Monday: Closed; Tuesday: Closed; Wednesday: 4:00 – 10:00 PM; Thursday: 4:00 – 10:00 PM; Friday: 4:00 PM – 12:00 AM; Saturday: 11:00 AM – 12:00 AM; Sunday: 11:00 AM – 10:00 PM", "open_24h": true, "open_0": "1100;1100", "open_1": null, "open_2": null, "open_4": "1600", "open_5": "1600", "open_6": "1100", "open_3": "1600", "close_0": "2200;0000", "close_1": null, "close_2": null, "close_4": "2200", "close_5": "NA", "close_6": "0000", "close_3": "2200" }, "geometry": { "type": "Point", "coordinates": [ -75.1204974, 39.9825986 ] } },
{ "type": "Feature", "properties": { "name": "Coral Mini Market Llc.", "place_id": "ChIJFcrmEz3IxokRNjf3dIGvWC8", "vicinity": "2036 East York Street, Philadelphia", "types": "c(\"convenience_store\", \"food\", \"store\", \"point_of_interest\", \"establishment\")", "business_status": "OPERATIONAL", "weekday_text": "Monday: 7:00 AM – 8:00 PM; Tuesday: 7:00 AM – 8:00 PM; Wednesday: 7:00 AM – 8:00 PM; Thursday: 7:00 AM – 8:00 PM; Friday: 7:00 AM – 8:00 PM; Saturday: 8:00 AM – 8:00 PM; Sunday: 8:00 AM – 8:00 PM", "open_24h": false, "open_0": "0800", "open_1": "0700", "open_2": "0700", "open_4": "0700", "open_5": "0700", "open_6": "0800", "open_3": "0700", "close_0": "2000", "close_1": "2000", "close_2": "2000", "close_4": "2000", "close_5": "2000", "close_6": "2000", "close_3": "2000" }, "geometry": { "type": "Point", "coordinates": [ -75.129472, 39.9832328 ] } },
{ "type": "Feature", "properties": { "name": "Coral Street Arts House", "place_id": "ChIJrbK21jzIxokRQ_umSUp_GiE", "vicinity": "2446-2468 Coral Street, Philadelphia", "types": "c(\"point_of_interest\", \"establishment\")", "business_status": null, "weekday_text": null, "open_24h": null, "open_0": null, "open_1": null, "open_2": null, "open_4": null, "open_5": null, "open_6": null, "open_3": null, "close_0": null, "close_1": null, "close_2": null, "close_4": null, "close_5": null, "close_6": null, "close_3": null }, "geometry": { "type": "Point", "coordinates": [ -75.1281376, 39.9843537 ] } },
{ "type": "Feature", "properties": { "name": "Cormorant Corner Bar", "place_id": "ChIJj9H4M4fJxokRrvcW1EHxwxg", "vicinity": "2301 Frankford Avenue, Philadelphia", "types": "c(\"bar\", \"point_of_interest\", \"establishment\")", "business_status": "OPERATIONAL", "weekday_text": "Monday: 4:00 PM – 2:00 AM; Tuesday: 4:00 PM – 2:00 AM; Wednesday: 4:00 PM – 2:00 AM; Thursday: 4:00 PM – 2:00 AM; Friday: 4:00 PM – 2:00 AM; Saturday: 1:00 PM – 2:00 AM; Sunday: 1:00 PM – 2:00 AM", "open_24h": false, "open_0": "1300", "open_1": "1600", "open_2": "1600", "open_4": "1600", "open_5": "1600", "open_6": "1300", "open_3": "1600", "close_0": "0200", "close_1": "0200", "close_2": "0200", "close_4": "0200", "close_5": "0200", "close_6": "0200", "close_3": "0200" }, "geometry": { "type": "Point", "coordinates": [ -75.1283709, 39.9804965 ] } },
{ "type": "Feature", "properties": { "name": "CoverLLC | Milk Depot", "place_id": "ChIJb54ZGxbIxokRg-5b4WeIi4c", "vicinity": "2042-46 Amber Street, Philadelphia", "types": "c(\"point_of_interest\", \"establishment\")", "business_status": null, "weekday_text": null, "open_24h": null, "open_0": null, "open_1": null, "open_2": null, "open_4": null, "open_5": null, "open_6": null, "open_3": null, "close_0": null, "close_1": null, "close_2": null, "close_4": null, "close_5": null, "close_6": null, "close_3": null }, "geometry": { "type": "Point", "coordinates": [ -75.1317464, 39.9811377 ] } },
{ "type": "Feature", "properties": { "name": "Devilfish Ink- Graphic Arts & Printing", "place_id": "ChIJVzuu8DzIxokRdFR7QgnPPE0", "vicinity": "2424 Martha Street, Philadelphia", "types": "c(\"store\", \"point_of_interest\", \"establishment\")", "business_status": "OPERATIONAL", "weekday_text": "Monday: 9:00 AM – 5:30 PM; Tuesday: 9:00 AM – 5:30 PM; Wednesday: 9:00 AM – 5:30 PM; Thursday: 9:00 AM – 5:30 PM; Friday: 9:00 AM – 5:30 PM; Saturday: Closed; Sunday: Closed", "open_24h": false, "open_0": null, "open_1": "0900", "open_2": "0900", "open_4": "0900", "open_5": "0900", "open_6": null, "open_3": "0900", "close_0": null, "close_1": "1730", "close_2": "1730", "close_4": "1730", "close_5": "1730", "close_6": null, "close_3": "1730" }, "geometry": { "type": "Point", "coordinates": [ -75.1275614, 39.9825781 ] } },
{ "type": "Feature", "properties": { "name": "Downerss Boutique", "place_id": "ChIJcy7wET7IxokRV3qd6Vc_rOw", "vicinity": "2050 Frankford Avenue, Philadelphia", "types": "c(\"clothing_store\", \"store\", \"point_of_interest\", \"establishment\")", "business_status": "OPERATIONAL", "weekday_text": "Monday: Closed; Tuesday: Closed; Wednesday: 12:00 – 6:00 PM; Thursday: 12:00 – 6:00 PM; Friday: 12:00 – 6:00 PM; Saturday: 11:00 AM – 6:00 PM; Sunday: 12:00 – 5:00 PM", "open_24h": false, "open_0": "1200", "open_1": null, "open_2": null, "open_4": "1200", "open_5": "1200", "open_6": "1100", "open_3": "1200", "close_0": "1700", "close_1": null, "close_2": null, "close_4": "1800", "close_5": "1800", "close_6": "1800", "close_3": "1800" }, "geometry": { "type": "Point", "coordinates": [ -75.1296757, 39.979653 ] } },
{ "type": "Feature", "properties": { "name": "DreamWorld Bakes", "place_id": "ChIJ6YcZYZHJxokRna6DeeFgTrU", "vicinity": "2400 Coral Street, Philadelphia", "types": "c(\"bakery\", \"food\", \"store\", \"point_of_interest\", \"establishment\")", "business_status": "OPERATIONAL", "weekday_text": "Monday: Closed; Tuesday: Closed; Wednesday: Closed; Thursday: 8:00 AM – 3:00 PM; Friday: 8:00 AM – 3:00 PM; Saturday: 9:00 AM – 4:00 PM; Sunday: 9:00 AM – 4:00 PM", "open_24h": false, "open_0": "0900", "open_1": null, "open_2": null, "open_4": "0800", "open_5": "0800", "open_6": "0900", "open_3": null, "close_0": "1600", "close_1": null, "close_2": null, "close_4": "1500", "close_5": "1500", "close_6": "1600", "close_3": null }, "geometry": { "type": "Point", "coordinates": [ -75.1293858, 39.9835621 ] } },
{ "type": "Feature", "properties": { "name": "East Girard", "place_id": "ChIJ0TmgWDvIxokRPRe8evi1TJg", "vicinity": "2515 Frankford Avenue, Philadelphia", "types": "c(\"point_of_interest\", \"establishment\")", "business_status": null, "weekday_text": null, "open_24h": null, "open_0": null, "open_1": null, "open_2": null, "open_4": null, "open_5": null, "open_6": null, "open_3": null, "close_0": null, "close_1": null, "close_2": null, "close_4": null, "close_5": null, "close_6": null, "close_3": null }, "geometry": { "type": "Point", "coordinates": [ -75.1253296, 39.983531 ] } },
{ "type": "Feature", "properties": { "name": "East Sergeant LLC", "place_id": "ChIJH0_UXlrJxokRp9sL2U2eGbo", "vicinity": "2532 Coral Street, Philadelphia", "types": "c(\"bar\", \"point_of_interest\", \"establishment\")", "business_status": null, "weekday_text": null, "open_24h": null, "open_0": null, "open_1": null, "open_2": null, "open_4": null, "open_5": null, "open_6": null, "open_3": null, "close_0": null, "close_1": null, "close_2": null, "close_4": null, "close_5": null, "close_6": null, "close_3": null }, "geometry": { "type": "Point", "coordinates": [ -75.1260704, 39.985271 ] } },
{ "type": "Feature", "properties": { "name": "El Cantinflas Bar & Restaurant", "place_id": "ChIJ4cNfhRfIxokROdgxZx90Cqo", "vicinity": "110 West Dauphin Street, Philadelphia", "types": "c(\"bar\", \"restaurant\", \"food\", \"point_of_interest\", \"establishment\")", "business_status": "OPERATIONAL", "weekday_text": "Monday: Closed; Tuesday: Closed; Wednesday: 12:00 – 10:00 PM; Thursday: 12:00 – 10:00 PM; Friday: 12:00 PM – 2:00 AM; Saturday: 12:00 PM – 2:00 AM; Sunday: 12:00 – 10:00 PM", "open_24h": true, "open_0": "1200;1200", "open_1": null, "open_2": null, "open_4": "1200", "open_5": "1200", "open_6": "1200", "open_3": "1200", "close_0": "2200;0200", "close_1": null, "close_2": null, "close_4": "2200", "close_5": "NA", "close_6": "0200", "close_3": "2200" }, "geometry": { "type": "Point", "coordinates": [ -75.1328651, 39.984806 ] } },
{ "type": "Feature", "properties": { "name": "El Fogon BBQ", "place_id": "ChIJCztDzgzJxokRW_5R_6YhhqY", "vicinity": "2213 Frankford Avenue, Philadelphia", "types": "c(\"restaurant\", \"food\", \"point_of_interest\", \"establishment\")", "business_status": "OPERATIONAL", "weekday_text": "Monday: Closed; Tuesday: Closed; Wednesday: Closed; Thursday: 3:00 – 9:00 PM; Friday: 3:00 – 9:00 PM; Saturday: 3:00 – 9:00 PM; Sunday: 3:00 – 8:00 PM", "open_24h": false, "open_0": "1500", "open_1": null, "open_2": null, "open_4": "1500", "open_5": "1500", "open_6": "1500", "open_3": null, "close_0": "2000", "close_1": null, "close_2": null, "close_4": "2100", "close_5": "2100", "close_6": "2100", "close_3": null }, "geometry": { "type": "Point", "coordinates": [ -75.128859, 39.9798568 ] } },
{ "type": "Feature", "properties": { "name": "Emilia", "place_id": "ChIJ99rPbwDJxokRFgAQqwFqnkQ", "vicinity": "2406 Frankford Avenue, Philadelphia", "types": "c(\"restaurant\", \"food\", \"point_of_interest\", \"establishment\")", "business_status": "OPERATIONAL", "weekday_text": "Monday: 5:00 – 9:30 PM; Tuesday: 5:00 – 9:30 PM; Wednesday: 5:00 – 9:30 PM; Thursday: 5:00 – 10:00 PM; Friday: 5:00 – 10:00 PM; Saturday: 5:00 – 10:00 PM; Sunday: 5:00 – 9:30 PM", "open_24h": false, "open_0": "1700", "open_1": "1700", "open_2": "1700", "open_4": "1700", "open_5": "1700", "open_6": "1700", "open_3": "1700", "close_0": "2130", "close_1": "2130", "close_2": "2130", "close_4": "2200", "close_5": "2200", "close_6": "2200", "close_3": "2130" }, "geometry": { "type": "Point", "coordinates": [ -75.1275955, 39.9818077 ] } },
{ "type": "Feature", "properties": { "name": "Erica's Bar", "place_id": "ChIJLZmT2TzIxokRyiSt1Sd-OVM", "vicinity": "2049 East Hagert Street, Philadelphia", "types": "c(\"bar\", \"point_of_interest\", \"establishment\")", "business_status": null, "weekday_text": null, "open_24h": null, "open_0": null, "open_1": null, "open_2": null, "open_4": null, "open_5": null, "open_6": null, "open_3": null, "close_0": null, "close_1": null, "close_2": null, "close_4": null, "close_5": null, "close_6": null, "close_3": null }, "geometry": { "type": "Point", "coordinates": [ -75.1280638, 39.983981 ] } },
{ "type": "Feature", "properties": { "name": "Escape From Emotional Eating", "place_id": "ChIJkQZVhobIxokR9ExTNAM_mJQ", "vicinity": "2229 Trenton Avenue, Philadelphia", "types": "c(\"point_of_interest\", \"health\", \"establishment\")", "business_status": "OPERATIONAL", "weekday_text": "Monday: 10:00 AM – 6:00 PM; Tuesday: 10:00 AM – 6:00 PM; Wednesday: 10:00 AM – 6:00 PM; Thursday: 10:00 AM – 6:00 PM; Friday: 10:00 AM – 3:00 PM; Saturday: Closed; Sunday: Closed", "open_24h": false, "open_0": null, "open_1": "1000", "open_2": "1000", "open_4": "1000", "open_5": "1000", "open_6": null, "open_3": "1000", "close_0": null, "close_1": "1800", "close_2": "1800", "close_4": "1800", "close_5": "1500", "close_6": null, "close_3": "1800" }, "geometry": { "type": "Point", "coordinates": [ -75.1293488, 39.9805375 ] } },
{ "type": "Feature", "properties": { "name": "Farm Truck Philly", "place_id": "ChIJKZfzWA3IxokRMM4z97RHcWY", "vicinity": "2139 East Cumberland Street, Philadelphia", "types": "c(\"food\", \"point_of_interest\", \"establishment\")", "business_status": "OPERATIONAL", "weekday_text": "Monday: 10:00 AM – 6:00 PM; Tuesday: 10:00 AM – 6:00 PM; Wednesday: 10:00 AM – 6:00 PM; Thursday: 10:00 AM – 6:00 PM; Friday: 10:00 AM – 6:00 PM; Saturday: 10:00 AM – 6:00 PM; Sunday: 10:00 AM – 6:00 PM", "open_24h": false, "open_0": "1000", "open_1": "1000", "open_2": "1000", "open_4": "1000", "open_5": "1000", "open_6": "1000", "open_3": "1000", "close_0": "1800", "close_1": "1800", "close_2": "1800", "close_4": "1800", "close_5": "1800", "close_6": "1800", "close_3": "1800" }, "geometry": { "type": "Point", "coordinates": [ -75.1245754, 39.982399 ] } },
{ "type": "Feature", "properties": { "name": "Fiore", "place_id": "ChIJwfP1Oh_JxokRT3hvPhPZDFA", "vicinity": "2413 Frankford Avenue, Philadelphia", "types": "c(\"restaurant\", \"food\", \"point_of_interest\", \"establishment\")", "business_status": "OPERATIONAL", "weekday_text": "Monday: 8:00 AM – 4:00 PM; Tuesday: Closed; Wednesday: 8:00 AM – 4:00 PM; Thursday: 8:00 AM – 4:00 PM; Friday: 8:00 AM – 4:00 PM; Saturday: 8:00 AM – 4:00 PM; Sunday: 8:00 AM – 4:00 PM", "open_24h": false, "open_0": "0800", "open_1": "0800", "open_2": null, "open_4": "0800", "open_5": "0800", "open_6": "0800", "open_3": "0800", "close_0": "1600", "close_1": "1600", "close_2": null, "close_4": "1600", "close_5": "1600", "close_6": "1600", "close_3": "1600" }, "geometry": { "type": "Point", "coordinates": [ -75.1270032, 39.9818868 ] } },
{ "type": "Feature", "properties": { "name": "Fiore's Shake's & Steak's", "place_id": "ChIJbesdsiTIxokRyMHeeQeoqQg", "vicinity": "2573 Frankford Avenue, Philadelphia", "types": "c(\"restaurant\", \"food\", \"point_of_interest\", \"establishment\")", "business_status": "OPERATIONAL", "weekday_text": "Monday: 11:00 AM – 11:00 PM; Tuesday: 11:00 AM – 11:00 PM; Wednesday: 11:00 AM – 11:00 PM; Thursday: 11:00 AM – 11:00 PM; Friday: 11:00 AM – 12:00 AM; Saturday: 11:00 AM – 12:00 AM; Sunday: 12:00 – 11:00 PM", "open_24h": true, "open_0": "1200;1200", "open_1": "1100", "open_2": "1100", "open_4": "1100", "open_5": "1100", "open_6": "1100", "open_3": "1100", "close_0": "2300;0000", "close_1": "2300", "close_2": "2300", "close_4": "2300", "close_5": "NA", "close_6": "0000", "close_3": "2300" }, "geometry": { "type": "Point", "coordinates": [ -75.1241635, 39.9849216 ] } },
{ "type": "Feature", "properties": { "name": "Fishtown Bartenders LLC", "place_id": "ChIJBzzmi7fJxokRjr4mdPDUbTg", "vicinity": "2543 Kern Street, Philadelphia", "types": "c(\"bar\", \"point_of_interest\", \"establishment\")", "business_status": null, "weekday_text": null, "open_24h": null, "open_0": null, "open_1": null, "open_2": null, "open_4": null, "open_5": null, "open_6": null, "open_3": null, "close_0": null, "close_1": null, "close_2": null, "close_4": null, "close_5": null, "close_6": null, "close_3": null }, "geometry": { "type": "Point", "coordinates": [ -75.1251596, 39.984848 ] } },
{ "type": "Feature", "properties": { "name": "Fishtown Engravers", "place_id": "ChIJlW53FT7IxokR9RiCH-SHlmY", "vicinity": "2011 Frankford Avenue, Philadelphia", "types": "c(\"store\", \"point_of_interest\", \"establishment\")", "business_status": "OPERATIONAL", "weekday_text": "Monday: 10:00 AM – 6:00 PM; Tuesday: 10:00 AM – 6:00 PM; Wednesday: 10:00 AM – 6:00 PM; Thursday: 10:00 AM – 6:00 PM; Friday: 10:00 AM – 6:00 PM; Saturday: Closed; Sunday: Closed", "open_24h": false, "open_0": null, "open_1": "1000", "open_2": "1000", "open_4": "1000", "open_5": "1000", "open_6": null, "open_3": "1000", "close_0": null, "close_1": "1800", "close_2": "1800", "close_4": "1800", "close_5": "1800", "close_6": null, "close_3": "1800" }, "geometry": { "type": "Point", "coordinates": [ -75.1299432, 39.9787975 ] } },
{ "type": "Feature", "properties": { "name": "Fishtown nails bar cafe", "place_id": "ChIJz2VHNjzIxokRJLJslPC25sA", "vicinity": "2325 Frankford Avenue, Philadelphia", "types": "c(\"beauty_salon\", \"hair_care\", \"point_of_interest\", \"establishment\")", "business_status": "OPERATIONAL", "weekday_text": "Monday: 10:00 AM – 7:00 PM; Tuesday: 10:00 AM – 7:00 PM; Wednesday: 10:00 AM – 7:00 PM; Thursday: 10:00 AM – 7:00 PM; Friday: 10:00 AM – 7:00 PM; Saturday: 9:00 AM – 6:00 PM; Sunday: Closed", "open_24h": false, "open_0": null, "open_1": "1000", "open_2": "1000", "open_4": "1000", "open_5": "1000", "open_6": "0900", "open_3": "1000", "close_0": null, "close_1": "1900", "close_2": "1900", "close_4": "1900", "close_5": "1900", "close_6": "1800", "close_3": "1900" }, "geometry": { "type": "Point", "coordinates": [ -75.1278367, 39.9809342 ] } },
{ "type": "Feature", "properties": { "name": "Friend and Nemesis", "place_id": "ChIJCbJ1lzzIxokRRDisfaJFjcM", "vicinity": "2472 Frankford Avenue, Philadelphia", "types": "c(\"hair_care\", \"beauty_salon\", \"clothing_store\", \"store\", \"point_of_interest\", \"establishment\")", "business_status": "OPERATIONAL", "weekday_text": "Monday: Closed; Tuesday: Closed; Wednesday: 11:00 AM – 7:00 PM; Thursday: 11:00 AM – 7:00 PM; Friday: 11:00 AM – 7:00 PM; Saturday: 10:00 AM – 3:00 PM; Sunday: Closed", "open_24h": false, "open_0": null, "open_1": null, "open_2": null, "open_4": "1100", "open_5": "1100", "open_6": "1000", "open_3": "1100", "close_0": null, "close_1": null, "close_2": null, "close_4": "1900", "close_5": "1900", "close_6": "1500", "close_3": "1900" }, "geometry": { "type": "Point", "coordinates": [ -75.1261733, 39.9830796 ] } },
{ "type": "Feature", "properties": { "name": "Garrison's Garage and Tires", "place_id": "ChIJ5VxOtz7IxokR29QpTx2dXPw", "vicinity": "2335 East Gordon Street, Philadelphia", "types": "c(\"car_repair\", \"store\", \"point_of_interest\", \"establishment\")", "business_status": "OPERATIONAL", "weekday_text": "Monday: 7:00 AM – 4:30 PM; Tuesday: 7:00 AM – 4:30 PM; Wednesday: 7:00 AM – 4:30 PM; Thursday: 7:00 AM – 4:30 PM; Friday: 7:00 AM – 4:30 PM; Saturday: Closed; Sunday: Closed", "open_24h": false, "open_0": null, "open_1": "0700", "open_2": "0700", "open_4": "0700", "open_5": "0700", "open_6": null, "open_3": "0700", "close_0": null, "close_1": "1630", "close_2": "1630", "close_4": "1630", "close_5": "1630", "close_6": null, "close_3": "1630" }, "geometry": { "type": "Point", "coordinates": [ -75.125767900000014, 39.9786628 ] } },
{ "type": "Feature", "properties": { "name": "Gents Barber Lounge", "place_id": "ChIJnwwl14XIxokR_ZCHj6Tcc1w", "vicinity": "1850 Frankford Avenue A, Philadelphia", "types": "c(\"night_club\", \"hair_care\", \"bar\", \"point_of_interest\", \"health\", \"establishment\")", "business_status": "OPERATIONAL", "weekday_text": "Monday: 12:30 – 7:00 PM; Tuesday: 10:30 AM – 7:00 PM; Wednesday: 10:30 AM – 7:00 PM; Thursday: 10:00 AM – 8:00 PM; Friday: 10:00 AM – 8:00 PM; Saturday: 10:30 AM – 4:00 PM; Sunday: 11:00 AM – 4:00 PM", "open_24h": false, "open_0": "1100", "open_1": "1230", "open_2": "1030", "open_4": "1000", "open_5": "1000", "open_6": "1030", "open_3": "1030", "close_0": "1600", "close_1": "1900", "close_2": "1900", "close_4": "2000", "close_5": "2000", "close_6": "1600", "close_3": "1900" }, "geometry": { "type": "Point", "coordinates": [ -75.1310975, 39.9781586 ] } },
{ "type": "Feature", "properties": { "name": "Good Time Tavern", "place_id": "ChIJ65jSGTnIxokRrBTadZJPrDs", "vicinity": "2501 East York Street, Philadelphia", "types": "c(\"bar\", \"point_of_interest\", \"establishment\")", "business_status": "OPERATIONAL", "weekday_text": "Monday: 12:00 PM – 2:00 AM; Tuesday: 12:00 PM – 2:00 AM; Wednesday: 12:00 PM – 2:00 AM; Thursday: 12:00 PM – 2:00 AM; Friday: 12:00 PM – 2:00 AM; Saturday: 12:00 PM – 2:00 AM; Sunday: 12:00 PM – 2:00 AM", "open_24h": false, "open_0": "1200", "open_1": "1200", "open_2": "1200", "open_4": "1200", "open_5": "1200", "open_6": "1200", "open_3": "1200", "close_0": "0200", "close_1": "0200", "close_2": "0200", "close_4": "0200", "close_5": "0200", "close_6": "0200", "close_3": "0200" }, "geometry": { "type": "Point", "coordinates": [ -75.1236024, 39.9772848 ] } },
{ "type": "Feature", "properties": { "name": "Great Circles", "place_id": "ChIJP8mLBAHJxokRrmWfr7xAY8U", "vicinity": "2427 Frankford Avenue 1st Floor, Philadelphia", "types": "c(\"store\", \"point_of_interest\", \"establishment\")", "business_status": "OPERATIONAL", "weekday_text": "Monday: Closed; Tuesday: Closed; Wednesday: Closed; Thursday: 4:00 – 7:00 PM; Friday: 4:00 – 7:00 PM; Saturday: 12:00 – 5:00 PM; Sunday: 1:00 – 5:00 PM", "open_24h": false, "open_0": "1300", "open_1": null, "open_2": null, "open_4": "1600", "open_5": "1600", "open_6": "1200", "open_3": null, "close_0": "1700", "close_1": null, "close_2": null, "close_4": "1900", "close_5": "1900", "close_6": "1700", "close_3": null }, "geometry": { "type": "Point", "coordinates": [ -75.1267513, 39.9820878 ] } },
{ "type": "Feature", "properties": { "name": "Green thumb juice bar And deli", "place_id": "ChIJDQiuVCPJxokRbS2CLjKKpJQ", "vicinity": "2000 Frankford Avenue, Philadelphia", "types": "c(\"restaurant\", \"food\", \"point_of_interest\", \"establishment\")", "business_status": null, "weekday_text": null, "open_24h": null, "open_0": null, "open_1": null, "open_2": null, "open_4": null, "open_5": null, "open_6": null, "open_3": null, "close_0": null, "close_1": null, "close_2": null, "close_4": null, "close_5": null, "close_6": null, "close_3": null }, "geometry": { "type": "Point", "coordinates": [ -75.1306173, 39.9787792 ] } },
{ "type": "Feature", "properties": { "name": "H&H Books", "place_id": "ChIJU2qhhpvIxokRVJvc7i2mi7o", "vicinity": "2230 Frankford Avenue, Philadelphia", "types": "c(\"book_store\", \"store\", \"point_of_interest\", \"establishment\")", "business_status": "OPERATIONAL", "weekday_text": "Monday: Closed; Tuesday: 12:00 – 4:45 PM; Wednesday: 12:00 – 4:45 PM; Thursday: 12:00 – 4:45 PM; Friday: 12:00 – 4:45 PM; Saturday: 10:00 AM – 4:45 PM; Sunday: 10:00 AM – 4:45 PM", "open_24h": false, "open_0": "1000", "open_1": null, "open_2": "1200", "open_4": "1200", "open_5": "1200", "open_6": "1000", "open_3": "1200", "close_0": "1645", "close_1": null, "close_2": "1645", "close_4": "1645", "close_5": "1645", "close_6": "1645", "close_3": "1645" }, "geometry": { "type": "Point", "coordinates": [ -75.1289094, 39.9803509 ] } },
{ "type": "Feature", "properties": { "name": "Halftime Goodtimes", "place_id": "ChIJp37YYRbIxokRLxhZKbD1U4E", "vicinity": "120 Diamond Street, Philadelphia", "types": "c(\"bar\", \"point_of_interest\", \"establishment\")", "business_status": "OPERATIONAL", "weekday_text": "Monday: 10:00 AM – 2:00 AM; Tuesday: 10:00 AM – 2:00 AM; Wednesday: 10:00 AM – 2:00 AM; Thursday: 10:00 AM – 2:00 AM; Friday: 10:00 AM – 2:00 AM; Saturday: 10:00 AM – 2:00 AM; Sunday: 10:00 AM – 2:00 AM", "open_24h": false, "open_0": "1000", "open_1": "1000", "open_2": "1000", "open_4": "1000", "open_5": "1000", "open_6": "1000", "open_3": "1000", "close_0": "0200", "close_1": "0200", "close_2": "0200", "close_4": "0200", "close_5": "0200", "close_6": "0200", "close_3": "0200" }, "geometry": { "type": "Point", "coordinates": [ -75.1340616, 39.9817262 ] } },
{ "type": "Feature", "properties": { "name": "Happ’s", "place_id": "ChIJ-ZkRSxPIxokRtEl8B7BG448", "vicinity": "1862 Frankford Avenue, Philadelphia", "types": "c(\"restaurant\", \"food\", \"point_of_interest\", \"establishment\")", "business_status": "OPERATIONAL", "weekday_text": "Monday: Closed; Tuesday: 8:00 AM – 3:00 PM; Wednesday: 8:00 AM – 3:00 PM; Thursday: 8:00 AM – 3:00 PM; Friday: 8:00 AM – 3:00 PM; Saturday: 8:00 AM – 3:00 PM; Sunday: 8:00 AM – 3:00 PM", "open_24h": false, "open_0": "0800", "open_1": null, "open_2": "0800", "open_4": "0800", "open_5": "0800", "open_6": "0800", "open_3": "0800", "close_0": "1500", "close_1": null, "close_2": "1500", "close_4": "1500", "close_5": "1500", "close_6": "1500", "close_3": "1500" }, "geometry": { "type": "Point", "coordinates": [ -75.1308495, 39.9783556 ] } },
{ "type": "Feature", "properties": { "name": "Heart of Gold Tattoo Club", "place_id": "ChIJU7g7YfPJxokRD7YFsiNnO0I", "vicinity": "2417 Coral Street, Philadelphia", "types": "c(\"store\", \"point_of_interest\", \"establishment\")", "business_status": "OPERATIONAL", "weekday_text": "Monday: Closed; Tuesday: 11:00 AM – 7:00 PM; Wednesday: 11:00 AM – 7:00 PM; Thursday: 11:00 AM – 7:00 PM; Friday: 11:00 AM – 7:00 PM; Saturday: 11:00 AM – 7:00 PM; Sunday: 11:00 AM – 7:00 PM", "open_24h": false, "open_0": "1100", "open_1": null, "open_2": "1100", "open_4": "1100", "open_5": "1100", "open_6": "1100", "open_3": "1100", "close_0": "1900", "close_1": null, "close_2": "1900", "close_4": "1900", "close_5": "1900", "close_6": "1900", "close_3": "1900" }, "geometry": { "type": "Point", "coordinates": [ -75.1285795, 39.9836183 ] } },
{ "type": "Feature", "properties": { "name": "Honey House Records", "place_id": "ChIJwauqBBjJxokRipK3GC8z8ZQ", "vicinity": "2137 East Huntingdon Street, Philadelphia", "types": "c(\"store\", \"point_of_interest\", \"establishment\")", "business_status": null, "weekday_text": null, "open_24h": null, "open_0": null, "open_1": null, "open_2": null, "open_4": null, "open_5": null, "open_6": null, "open_3": null, "close_0": null, "close_1": null, "close_2": null, "close_4": null, "close_5": null, "close_6": null, "close_3": null }, "geometry": { "type": "Point", "coordinates": [ -75.1230572, 39.9841569 ] } },
{ "type": "Feature", "properties": { "name": "Horatio B Hackett School", "place_id": "ChIJ13gyQDzIxokRve2yM1zXZIE", "vicinity": "2161 East York Street, Philadelphia", "types": "c(\"primary_school\", \"school\", \"point_of_interest\", \"establishment\")", "business_status": "OPERATIONAL", "weekday_text": "Monday: 8:00 AM – 5:00 PM; Tuesday: 8:00 AM – 5:00 PM; Wednesday: 8:00 AM – 5:00 PM; Thursday: 8:00 AM – 5:00 PM; Friday: 8:00 AM – 12:30 PM; Saturday: Closed; Sunday: Closed", "open_24h": false, "open_0": null, "open_1": "0800", "open_2": "0800", "open_4": "0800", "open_5": "0800", "open_6": null, "open_3": "0800", "close_0": null, "close_1": "1700", "close_2": "1700", "close_4": "1700", "close_5": "1230", "close_6": null, "close_3": "1700" }, "geometry": { "type": "Point", "coordinates": [ -75.1266263, 39.9812591 ] } },
{ "type": "Feature", "properties": { "name": "J A Cunningham Equipment Inc", "place_id": "ChIJwYtQ_xXIxokRc7aqysNBkp0", "vicinity": "2025 Trenton Avenue, Philadelphia", "types": "c(\"store\", \"point_of_interest\", \"establishment\")", "business_status": "OPERATIONAL", "weekday_text": "Monday: 7:30 AM – 4:30 PM; Tuesday: 7:30 AM – 4:30 PM; Wednesday: 7:30 AM – 4:30 PM; Thursday: 7:30 AM – 4:30 PM; Friday: 7:30 AM – 4:30 PM; Saturday: Closed; Sunday: Closed", "open_24h": false, "open_0": null, "open_1": "0730", "open_2": "0730", "open_4": "0730", "open_5": "0730", "open_6": null, "open_3": "0730", "close_0": null, "close_1": "1630", "close_2": "1630", "close_4": "1630", "close_5": "1630", "close_6": null, "close_3": "1630" }, "geometry": { "type": "Point", "coordinates": [ -75.1308517, 39.9799079 ] } },
{ "type": "Feature", "properties": { "name": "Korea Taqueria", "place_id": "ChIJUW2O1iDJxokRVpPgMUUhuV4", "vicinity": "2563 Trenton Avenue, Philadelphia", "types": "c(\"restaurant\", \"food\", \"point_of_interest\", \"establishment\")", "business_status": "OPERATIONAL", "weekday_text": "Monday: Closed; Tuesday: 11:00 AM – 9:00 PM; Wednesday: 11:00 AM – 9:00 PM; Thursday: 11:00 AM – 9:00 PM; Friday: 11:00 AM – 9:00 PM; Saturday: 11:00 AM – 9:00 PM; Sunday: 11:00 AM – 9:00 PM", "open_24h": false, "open_0": "1100", "open_1": null, "open_2": "1100", "open_4": "1100", "open_5": "1100", "open_6": "1100", "open_3": "1100", "close_0": "2100", "close_1": null, "close_2": "2100", "close_4": "2100", "close_5": "2100", "close_6": "2100", "close_3": "2100" }, "geometry": { "type": "Point", "coordinates": [ -75.1229982, 39.9831548 ] } },
{ "type": "Feature", "properties": { "name": "Korean Fried Chicken - By Korea Taqueria (Fishtown)", "place_id": "ChIJW1islaXJxokRx_TSNSlpmBs", "vicinity": "2563 Trenton Avenue Suite A, Philadelphia", "types": "c(\"meal_takeaway\", \"restaurant\", \"food\", \"point_of_interest\", \"establishment\")", "business_status": "OPERATIONAL", "weekday_text": "Monday: Closed; Tuesday: 11:00 AM – 9:00 PM; Wednesday: 11:00 AM – 9:00 PM; Thursday: 11:00 AM – 9:00 PM; Friday: 11:00 AM – 9:00 PM; Saturday: 11:00 AM – 9:00 PM; Sunday: 11:00 AM – 9:00 PM", "open_24h": false, "open_0": "1100", "open_1": null, "open_2": "1100", "open_4": "1100", "open_5": "1100", "open_6": "1100", "open_3": "1100", "close_0": "2100", "close_1": null, "close_2": "2100", "close_4": "2100", "close_5": "2100", "close_6": "2100", "close_3": "2100" }, "geometry": { "type": "Point", "coordinates": [ -75.1229982, 39.9831548 ] } },
{ "type": "Feature", "properties": { "name": "Les Fleurs Salon", "place_id": "ChIJ080GJj7IxokRE8oWI2Mv2WU", "vicinity": "1858 Frankford Avenue, Philadelphia", "types": "c(\"beauty_salon\", \"hair_care\", \"point_of_interest\", \"establishment\")", "business_status": "OPERATIONAL", "weekday_text": "Monday: Closed; Tuesday: 10:00 AM – 7:00 PM; Wednesday: 10:00 AM – 7:00 PM; Thursday: 10:00 AM – 7:00 PM; Friday: 10:00 AM – 7:00 PM; Saturday: 10:00 AM – 6:00 PM; Sunday: 10:00 AM – 6:00 PM", "open_24h": false, "open_0": "1000", "open_1": null, "open_2": "1000", "open_4": "1000", "open_5": "1000", "open_6": "1000", "open_3": "1000", "close_0": "1800", "close_1": null, "close_2": "1900", "close_4": "1900", "close_5": "1900", "close_6": "1800", "close_3": "1900" }, "geometry": { "type": "Point", "coordinates": [ -75.1309362, 39.9782837 ] } },
{ "type": "Feature", "properties": { "name": "Liberti Church of the River Wards", "place_id": "ChIJPww3OjnIxokRSwGlsIH5DJI", "vicinity": "2038 East Cumberland Street, Philadelphia", "types": "c(\"church\", \"place_of_worship\", \"point_of_interest\", \"establishment\")", "business_status": "OPERATIONAL", "weekday_text": "Monday: Closed; Tuesday: Closed; Wednesday: Closed; Thursday: Closed; Friday: Closed; Saturday: Closed; Sunday: 4:00 – 5:30 PM", "open_24h": false, "open_0": "1600", "open_1": null, "open_2": null, "open_4": null, "open_5": null, "open_6": null, "open_3": null, "close_0": "1730", "close_1": null, "close_2": null, "close_4": null, "close_5": null, "close_6": null, "close_3": null }, "geometry": { "type": "Point", "coordinates": [ -75.1273722, 39.9846034 ] } },
{ "type": "Feature", "properties": { "name": "Liguria Pizzeria", "place_id": "ChIJr0ekDI3JxokRRNzrFpi3fK0", "vicinity": "1826 Frankford Avenue, Philadelphia", "types": "c(\"restaurant\", \"food\", \"point_of_interest\", \"establishment\")", "business_status": "OPERATIONAL", "weekday_text": "Monday: Closed; Tuesday: 11:00 AM – 9:00 PM; Wednesday: 11:00 AM – 9:00 PM; Thursday: 11:00 AM – 9:00 PM; Friday: 11:00 AM – 10:00 PM; Saturday: 11:00 AM – 10:00 PM; Sunday: 12:00 – 9:00 PM", "open_24h": false, "open_0": "1200", "open_1": null, "open_2": "1100", "open_4": "1100", "open_5": "1100", "open_6": "1100", "open_3": "1100", "close_0": "2100", "close_1": null, "close_2": "2100", "close_4": "2100", "close_5": "2200", "close_6": "2200", "close_3": "2100" }, "geometry": { "type": "Point", "coordinates": [ -75.131646, 39.977576 ] } },
{ "type": "Feature", "properties": { "name": "Little Data Center Inc", "place_id": "ChIJp104pj7IxokRbqX7XcKlVfc", "vicinity": "2314 East York Street, Philadelphia", "types": "c(\"finance\", \"point_of_interest\", \"health\", \"establishment\")", "business_status": null, "weekday_text": null, "open_24h": null, "open_0": null, "open_1": null, "open_2": null, "open_4": null, "open_5": null, "open_6": null, "open_3": null, "close_0": null, "close_1": null, "close_2": null, "close_4": null, "close_5": null, "close_6": null, "close_3": null }, "geometry": { "type": "Point", "coordinates": [ -75.1261493, 39.979276 ] } },
{ "type": "Feature", "properties": { "name": "Little Walter’s", "place_id": "ChIJ5R7rKBvJxokReEpkqP4umiI", "vicinity": "2049 East Hagert Street, Philadelphia", "types": "c(\"restaurant\", \"food\", \"point_of_interest\", \"establishment\")", "business_status": "OPERATIONAL", "weekday_text": "Monday: Closed; Tuesday: 4:00 – 9:00 PM; Wednesday: 4:00 – 9:00 PM; Thursday: 4:00 – 9:00 PM; Friday: 4:00 – 10:00 PM; Saturday: 5:00 – 10:00 PM; Sunday: 3:00 – 8:00 PM", "open_24h": false, "open_0": "1500", "open_1": null, "open_2": "1600", "open_4": "1600", "open_5": "1600", "open_6": "1700", "open_3": "1600", "close_0": "2000", "close_1": null, "close_2": "2100", "close_4": "2100", "close_5": "2200", "close_6": "2200", "close_3": "2100" }, "geometry": { "type": "Point", "coordinates": [ -75.128006, 39.9839997 ] } },
{ "type": "Feature", "properties": { "name": "Loco Pez", "place_id": "ChIJ_cOVHj_IxokRre9EPY1KNkY", "vicinity": "2401 East Norris Street, Philadelphia", "types": "c(\"meal_takeaway\", \"bar\", \"restaurant\", \"food\", \"point_of_interest\", \"establishment\")", "business_status": "OPERATIONAL", "weekday_text": "Monday: 11:00 AM – 10:00 PM; Tuesday: 11:00 AM – 11:00 PM; Wednesday: 11:00 AM – 11:00 PM; Thursday: 11:00 AM – 11:00 PM; Friday: 11:00 AM – 12:00 AM; Saturday: 11:00 AM – 12:00 AM; Sunday: 11:00 AM – 10:00 PM", "open_24h": true, "open_0": "1100;1100", "open_1": "1100", "open_2": "1100", "open_4": "1100", "open_5": "1100", "open_6": "1100", "open_3": "1100", "close_0": "2200;0000", "close_1": "2200", "close_2": "2300", "close_4": "2300", "close_5": "NA", "close_6": "0000", "close_3": "2300" }, "geometry": { "type": "Point", "coordinates": [ -75.1272262, 39.976834800000013 ] } },
{ "type": "Feature", "properties": { "name": "Lost Time Brewing Company", "place_id": "ChIJL3XIxXrJxokRbKojRQPREkA", "vicinity": "2145 North Front Street, Philadelphia", "types": "c(\"liquor_store\", \"bar\", \"restaurant\", \"food\", \"point_of_interest\", \"store\", \"establishment\")", "business_status": "OPERATIONAL", "weekday_text": "Monday: 5:00 – 10:00 PM; Tuesday: 3:00 – 10:00 PM; Wednesday: 3:00 – 10:00 PM; Thursday: 3:00 – 10:00 PM; Friday: 3:00 – 11:00 PM; Saturday: 12:00 – 11:00 PM; Sunday: 12:00 – 9:00 PM", "open_24h": false, "open_0": "1200", "open_1": "1700", "open_2": "1500", "open_4": "1500", "open_5": "1500", "open_6": "1200", "open_3": "1500", "close_0": "2100", "close_1": "2200", "close_2": "2200", "close_4": "2200", "close_5": "2300", "close_6": "2300", "close_3": "2200" }, "geometry": { "type": "Point", "coordinates": [ -75.1324739, 39.9827317 ] } },
{ "type": "Feature", "properties": { "name": "Made and Maker", "place_id": "ChIJrYCnFD7IxokRPaeDNe1EiRM", "vicinity": "2021 Frankford Avenue #1920, Philadelphia", "types": "c(\"clothing_store\", \"store\", \"point_of_interest\", \"establishment\")", "business_status": null, "weekday_text": null, "open_24h": null, "open_0": null, "open_1": null, "open_2": null, "open_4": null, "open_5": null, "open_6": null, "open_3": null, "close_0": null, "close_1": null, "close_2": null, "close_4": null, "close_5": null, "close_6": null, "close_3": null }, "geometry": { "type": "Point", "coordinates": [ -75.1297835, 39.979003600000013 ] } },
{ "type": "Feature", "properties": { "name": "MaxAesthetics", "place_id": "ChIJDx04AbbHxokRp3rXORjXuH4", "vicinity": "2137 East Huntingdon Street Suite W 1000, Philadelphia", "types": "c(\"beauty_salon\", \"spa\", \"hair_care\", \"health\", \"point_of_interest\", \"establishment\")", "business_status": "OPERATIONAL", "weekday_text": "Monday: Closed; Tuesday: 10:00 AM – 7:00 PM; Wednesday: 10:00 AM – 7:00 PM; Thursday: 10:00 AM – 7:00 PM; Friday: 10:00 AM – 7:00 PM; Saturday: 10:00 AM – 5:00 PM; Sunday: Closed", "open_24h": false, "open_0": null, "open_1": null, "open_2": "1000", "open_4": "1000", "open_5": "1000", "open_6": "1000", "open_3": "1000", "close_0": null, "close_1": null, "close_2": "1900", "close_4": "1900", "close_5": "1900", "close_6": "1700", "close_3": "1900" }, "geometry": { "type": "Point", "coordinates": [ -75.1230572, 39.9841569 ] } },
{ "type": "Feature", "properties": { "name": "Meetinghouse", "place_id": "ChIJC0lhssDJxokRrLW8Qun5hnI", "vicinity": "2331 East Cumberland Street, Philadelphia", "types": "c(\"bar\", \"point_of_interest\", \"establishment\")", "business_status": "OPERATIONAL", "weekday_text": "Monday: 4:00 – 11:00 PM; Tuesday: 4:00 – 11:00 PM; Wednesday: 4:00 – 11:00 PM; Thursday: 4:00 – 11:00 PM; Friday: 4:00 PM – 12:00 AM; Saturday: 11:00 AM – 12:00 AM; Sunday: 11:00 AM – 10:00 PM", "open_24h": true, "open_0": "1100;1100", "open_1": "1600", "open_2": "1600", "open_4": "1600", "open_5": "1600", "open_6": "1100", "open_3": "1600", "close_0": "2200;0000", "close_1": "2300", "close_2": "2300", "close_4": "2300", "close_5": "NA", "close_6": "0000", "close_3": "2300" }, "geometry": { "type": "Point", "coordinates": [ -75.1230572, 39.9803706 ] } },
{ "type": "Feature", "properties": { "name": "Mendez Homes & Investments", "place_id": "ChIJm2m1ojzIxokRMvC8vB9U4v4", "vicinity": "2480 Frankford Avenue, Philadelphia", "types": "c(\"real_estate_agency\", \"point_of_interest\", \"establishment\")", "business_status": "OPERATIONAL", "weekday_text": "Monday: 10:00 AM – 5:30 PM; Tuesday: 10:00 AM – 5:30 PM; Wednesday: 10:00 AM – 5:30 PM; Thursday: 10:00 AM – 5:30 PM; Friday: 10:00 AM – 5:30 PM; Saturday: Closed; Sunday: Closed", "open_24h": false, "open_0": null, "open_1": "1000", "open_2": "1000", "open_4": "1000", "open_5": "1000", "open_6": null, "open_3": "1000", "close_0": null, "close_1": "1730", "close_2": "1730", "close_4": "1730", "close_5": "1730", "close_6": null, "close_3": "1730" }, "geometry": { "type": "Point", "coordinates": [ -75.1260917, 39.9833351 ] } },
{ "type": "Feature", "properties": { "name": "Michael's Decorators Draperies", "place_id": "ChIJMz-C2D3IxokRJk9L04JiaRI", "vicinity": "2210 Frankford Avenue #14, Philadelphia", "types": "c(\"furniture_store\", \"home_goods_store\", \"store\", \"point_of_interest\", \"establishment\")", "business_status": null, "weekday_text": null, "open_24h": null, "open_0": null, "open_1": null, "open_2": null, "open_4": null, "open_5": null, "open_6": null, "open_3": null, "close_0": null, "close_1": null, "close_2": null, "close_4": null, "close_5": null, "close_6": null, "close_3": null }, "geometry": { "type": "Point", "coordinates": [ -75.1293128, 39.9799698 ] } },
{ "type": "Feature", "properties": { "name": "Minnow Lane", "place_id": "ChIJJ5XcbD7IxokRwvEvOiBGHEg", "vicinity": "2029 Frankford Avenue, Philadelphia", "types": "c(\"clothing_store\", \"store\", \"point_of_interest\", \"establishment\")", "business_status": "OPERATIONAL", "weekday_text": "Monday: Closed; Tuesday: 11:00 AM – 5:00 PM; Wednesday: 11:00 AM – 5:00 PM; Thursday: 11:00 AM – 5:00 PM; Friday: 11:00 AM – 5:00 PM; Saturday: 11:00 AM – 5:00 PM; Sunday: 11:00 AM – 5:00 PM", "open_24h": false, "open_0": "1100", "open_1": null, "open_2": "1100", "open_4": "1100", "open_5": "1100", "open_6": "1100", "open_3": "1100", "close_0": "1700", "close_1": null, "close_2": "1700", "close_4": "1700", "close_5": "1700", "close_6": "1700", "close_3": "1700" }, "geometry": { "type": "Point", "coordinates": [ -75.129654, 39.97911 ] } },
{ "type": "Feature", "properties": { "name": "Minor Details Philly", "place_id": "ChIJ4-ofYljJxokRZ63xQJsDykk", "vicinity": "2023 Frankford Avenue, Philadelphia", "types": "c(\"clothing_store\", \"store\", \"point_of_interest\", \"establishment\")", "business_status": "OPERATIONAL", "weekday_text": "Monday: 11:00 AM – 6:00 PM; Tuesday: 11:00 AM – 6:00 PM; Wednesday: 11:00 AM – 6:00 PM; Thursday: 11:00 AM – 7:00 PM; Friday: 10:30 AM – 7:00 PM; Saturday: 10:30 AM – 7:00 PM; Sunday: 11:00 AM – 5:00 PM", "open_24h": false, "open_0": "1100", "open_1": "1100", "open_2": "1100", "open_4": "1100", "open_5": "1030", "open_6": "1030", "open_3": "1100", "close_0": "1700", "close_1": "1800", "close_2": "1800", "close_4": "1900", "close_5": "1900", "close_6": "1900", "close_3": "1800" }, "geometry": { "type": "Point", "coordinates": [ -75.129863, 39.979063 ] } },
{ "type": "Feature", "properties": { "name": "Mixteca Philly", "place_id": "ChIJv1h8TNnJxokRchcXb2xzsqc", "vicinity": "2113 East York Street, Philadelphia", "types": "c(\"bar\", \"point_of_interest\", \"establishment\")", "business_status": "OPERATIONAL", "weekday_text": "Monday: Closed; Tuesday: Closed; Wednesday: Closed; Thursday: Closed; Friday: 4:00 PM – 2:00 AM; Saturday: 4:00 PM – 2:00 AM; Sunday: 4:00 – 11:00 PM", "open_24h": true, "open_0": "1600;1600", "open_1": null, "open_2": null, "open_4": null, "open_5": "1600", "open_6": "1600", "open_3": null, "close_0": "2300;0200", "close_1": null, "close_2": null, "close_4": null, "close_5": "NA", "close_6": "0200", "close_3": null }, "geometry": { "type": "Point", "coordinates": [ -75.128108700000013, 39.9822181 ] } },
{ "type": "Feature", "properties": { "name": "Molto Bene! Ravioli Co.", "place_id": "ChIJYbO8EADJxokRkwHnu4GYqrM", "vicinity": "2303 Frankford Avenue, Philadelphia", "types": "c(\"food\", \"store\", \"point_of_interest\", \"establishment\")", "business_status": "OPERATIONAL", "weekday_text": "Monday: Closed; Tuesday: 11:00 AM – 7:00 PM; Wednesday: 11:00 AM – 7:00 PM; Thursday: 11:00 AM – 7:00 PM; Friday: 11:00 AM – 7:00 PM; Saturday: 10:00 AM – 6:00 PM; Sunday: 9:00 AM – 5:00 PM", "open_24h": false, "open_0": "0900", "open_1": null, "open_2": "1100", "open_4": "1100", "open_5": "1100", "open_6": "1000", "open_3": "1100", "close_0": "1700", "close_1": null, "close_2": "1900", "close_4": "1900", "close_5": "1900", "close_6": "1800", "close_3": "1900" }, "geometry": { "type": "Point", "coordinates": [ -75.128301, 39.9805213 ] } },
{ "type": "Feature", "properties": { "name": "Mr. Fries Man", "place_id": "ChIJU1niBwDJxokRnl3CcPTZf8Y", "vicinity": "2313 Frankford Avenue, Philadelphia", "types": "c(\"restaurant\", \"food\", \"point_of_interest\", \"establishment\")", "business_status": "OPERATIONAL", "weekday_text": "Monday: 11:00 AM – 9:00 PM; Tuesday: 11:00 AM – 9:00 PM; Wednesday: 11:00 AM – 9:00 PM; Thursday: 11:00 AM – 9:00 PM; Friday: 11:00 AM – 9:00 PM; Saturday: 11:00 AM – 9:00 PM; Sunday: 11:00 AM – 9:00 PM", "open_24h": false, "open_0": "1100", "open_1": "1100", "open_2": "1100", "open_4": "1100", "open_5": "1100", "open_6": "1100", "open_3": "1100", "close_0": "2100", "close_1": "2100", "close_2": "2100", "close_4": "2100", "close_5": "2100", "close_6": "2100", "close_3": "2100" }, "geometry": { "type": "Point", "coordinates": [ -75.1281311, 39.9807036 ] } },
{ "type": "Feature", "properties": { "name": "Mural City Cellars", "place_id": "ChIJ59Y-CajJxokR77PJeu1P9oQ", "vicinity": "1831 Frankford Avenue, Philadelphia", "types": "c(\"liquor_store\", \"bar\", \"restaurant\", \"food\", \"point_of_interest\", \"store\", \"establishment\")", "business_status": "OPERATIONAL", "weekday_text": "Monday: 4:00 – 10:00 PM; Tuesday: Closed; Wednesday: 4:00 – 10:00 PM; Thursday: 4:00 – 10:00 PM; Friday: 4:00 – 11:00 PM; Saturday: 12:00 – 11:00 PM; Sunday: 12:00 – 8:00 PM", "open_24h": false, "open_0": "1200", "open_1": "1600", "open_2": null, "open_4": "1600", "open_5": "1600", "open_6": "1200", "open_3": "1600", "close_0": "2000", "close_1": "2200", "close_2": null, "close_4": "2200", "close_5": "2300", "close_6": "2300", "close_3": "2200" }, "geometry": { "type": "Point", "coordinates": [ -75.1310734, 39.9775831 ] } },
{ "type": "Feature", "properties": { "name": "Myrtle & Magnolia", "place_id": "ChIJT1s79dbJxokRj49fKmmLaTk", "vicinity": "2222 Frankford Avenue, Philadelphia", "types": "c(\"florist\", \"store\", \"point_of_interest\", \"establishment\")", "business_status": "OPERATIONAL", "weekday_text": "Monday: Closed; Tuesday: 10:00 AM – 4:00 PM; Wednesday: 10:00 AM – 4:00 PM; Thursday: 10:00 AM – 4:00 PM; Friday: 10:00 AM – 4:00 PM; Saturday: 10:00 AM – 4:00 PM; Sunday: Closed", "open_24h": false, "open_0": null, "open_1": null, "open_2": "1000", "open_4": "1000", "open_5": "1000", "open_6": "1000", "open_3": "1000", "close_0": null, "close_1": null, "close_2": "1600", "close_4": "1600", "close_5": "1600", "close_6": "1600", "close_3": "1600" }, "geometry": { "type": "Point", "coordinates": [ -75.1291485, 39.9802728 ] } },
{ "type": "Feature", "properties": { "name": "New Beginnings Holistic Therapies, Inc.", "place_id": "ChIJPww3OjnIxokROSWT2qMe5iI", "vicinity": "2138 East York Street, Philadelphia", "types": "c(\"health\", \"point_of_interest\", \"establishment\")", "business_status": null, "weekday_text": null, "open_24h": null, "open_0": null, "open_1": null, "open_2": null, "open_4": null, "open_5": null, "open_6": null, "open_3": null, "close_0": null, "close_1": null, "close_2": null, "close_4": null, "close_5": null, "close_6": null, "close_3": null }, "geometry": { "type": "Point", "coordinates": [ -75.1279337, 39.9816414 ] } },
{ "type": "Feature", "properties": { "name": "OG Pizza", "place_id": "ChIJD8N8pDzIxokRjTW7ucdkTfk", "vicinity": "2500 Frankford Avenue, Philadelphia", "types": "c(\"meal_delivery\", \"restaurant\", \"food\", \"point_of_interest\", \"establishment\")", "business_status": "OPERATIONAL", "weekday_text": "Monday: 11:00 AM – 10:00 PM; Tuesday: 11:00 AM – 10:00 PM; Wednesday: 11:00 AM – 10:00 PM; Thursday: 11:00 AM – 10:00 PM; Friday: 11:00 AM – 10:00 PM; Saturday: 11:00 AM – 10:00 PM; Sunday: 12:00 – 10:00 PM", "open_24h": false, "open_0": "1200", "open_1": "1100", "open_2": "1100", "open_4": "1100", "open_5": "1100", "open_6": "1100", "open_3": "1100", "close_0": "2200", "close_1": "2200", "close_2": "2200", "close_4": "2200", "close_5": "2200", "close_6": "2200", "close_3": "2200" }, "geometry": { "type": "Point", "coordinates": [ -75.125872, 39.9835526 ] } },
{ "type": "Feature", "properties": { "name": "Otolith Sustainable Seafood", "place_id": "ChIJvWOK0iTIxokRZggPS0ur-ME", "vicinity": "2133 East Huntingdon Street, Philadelphia", "types": "c(\"restaurant\", \"food\", \"point_of_interest\", \"establishment\")", "business_status": "OPERATIONAL", "weekday_text": "Monday: 10:00 AM – 9:00 PM; Tuesday: 10:00 AM – 9:00 PM; Wednesday: 10:00 AM – 9:00 PM; Thursday: 10:00 AM – 9:00 PM; Friday: 10:00 AM – 9:00 PM; Saturday: 10:00 AM – 8:00 PM; Sunday: 10:00 AM – 8:00 PM", "open_24h": false, "open_0": "1000", "open_1": "1000", "open_2": "1000", "open_4": "1000", "open_5": "1000", "open_6": "1000", "open_3": "1000", "close_0": "2000", "close_1": "2100", "close_2": "2100", "close_4": "2100", "close_5": "2100", "close_6": "2000", "close_3": "2100" }, "geometry": { "type": "Point", "coordinates": [ -75.123124, 39.9842236 ] } },
{ "type": "Feature", "properties": { "name": "POPS Skatepark", "place_id": "ChIJoQp4MDvIxokR7QKdfxRIjys", "vicinity": "2134 East Hazzard Street, Philadelphia", "types": "c(\"point_of_interest\", \"establishment\")", "business_status": "OPERATIONAL", "weekday_text": "Monday: 9:00 AM – 9:00 PM; Tuesday: 9:00 AM – 9:00 PM; Wednesday: 9:00 AM – 9:00 PM; Thursday: 9:00 AM – 9:00 PM; Friday: 9:00 AM – 9:00 PM; Saturday: 9:00 AM – 9:00 PM; Sunday: 9:00 AM – 9:00 PM", "open_24h": false, "open_0": "0900", "open_1": "0900", "open_2": "0900", "open_4": "0900", "open_5": "0900", "open_6": "0900", "open_3": "0900", "close_0": "2100", "close_1": "2100", "close_2": "2100", "close_4": "2100", "close_5": "2100", "close_6": "2100", "close_3": "2100" }, "geometry": { "type": "Point", "coordinates": [ -75.1237299, 39.9835409 ] } },
{ "type": "Feature", "properties": { "name": "Perry's Place", "place_id": "ChIJpaBpJjvIxokReTUNh-AzB6E", "vicinity": "2174 East Huntingdon Street, Philadelphia", "types": "c(\"bar\", \"point_of_interest\", \"establishment\")", "business_status": "OPERATIONAL", "weekday_text": "Monday: Closed; Tuesday: Closed; Wednesday: Closed; Thursday: Closed; Friday: 6:00 PM – 2:00 AM; Saturday: 6:00 PM – 2:00 AM; Sunday: Closed", "open_24h": true, "open_0": "NA", "open_1": null, "open_2": null, "open_4": null, "open_5": "1800", "open_6": "1800", "open_3": null, "close_0": "0200", "close_1": null, "close_2": null, "close_4": null, "close_5": "NA", "close_6": "0200", "close_3": null }, "geometry": { "type": "Point", "coordinates": [ -75.1226859, 39.983339 ] } },
{ "type": "Feature", "properties": { "name": "Philadelphia Argentine Tango School", "place_id": "ChIJMZ7lDT7IxokRqh0eoJYQMOk", "vicinity": "2030 Frankford Avenue, Philadelphia", "types": "c(\"point_of_interest\", \"establishment\")", "business_status": "OPERATIONAL", "weekday_text": "Monday: 4:00 – 10:00 PM; Tuesday: 6:00 – 9:00 PM; Wednesday: 5:00 PM – 12:00 AM; Thursday: 7:00 – 10:00 PM; Friday: 7:00 – 9:30 PM; Saturday: 2:00 – 6:00 PM; Sunday: 4:00 – 10:00 PM", "open_24h": true, "open_0": "1600", "open_1": "1600", "open_2": "1800", "open_4": "1900;1900", "open_5": "1900", "open_6": "1400", "open_3": "1700", "close_0": "2200", "close_1": "2200", "close_2": "2100", "close_4": "0000;2200", "close_5": "2130", "close_6": "1800", "close_3": "NA" }, "geometry": { "type": "Point", "coordinates": [ -75.1300019, 39.9793732 ] } },
{ "type": "Feature", "properties": { "name": "Philadelphia Brewing Co.", "place_id": "ChIJbTUR7zzIxokRCUHsVDLAKJY", "vicinity": "2440 Frankford Avenue, Philadelphia", "types": "c(\"tourist_attraction\", \"bar\", \"restaurant\", \"food\", \"point_of_interest\", \"establishment\")", "business_status": "OPERATIONAL", "weekday_text": "Monday: 11:00 AM – 11:00 PM; Tuesday: 11:00 AM – 11:00 PM; Wednesday: 11:00 AM – 12:00 AM; Thursday: 11:00 AM – 12:00 AM; Friday: 11:00 AM – 12:00 AM; Saturday: 11:00 AM – 12:00 AM; Sunday: 11:00 AM – 11:00 PM", "open_24h": true, "open_0": "1100;1100", "open_1": "1100", "open_2": "1100", "open_4": "1100", "open_5": "1100", "open_6": "1100", "open_3": "1100", "close_0": "2300;0000", "close_1": "2300", "close_2": "2300", "close_4": "0000", "close_5": "0000", "close_6": "0000", "close_3": "NA" }, "geometry": { "type": "Point", "coordinates": [ -75.1272219, 39.9826892 ] } },
{ "type": "Feature", "properties": { "name": "Philly Curio", "place_id": "ChIJaa8PTgDJxokR5MFC-FqLkpE", "vicinity": "2240 Frankford Avenue, Philadelphia", "types": "c(\"home_goods_store\", \"store\", \"point_of_interest\", \"establishment\")", "business_status": null, "weekday_text": null, "open_24h": null, "open_0": null, "open_1": null, "open_2": null, "open_4": null, "open_5": null, "open_6": null, "open_3": null, "close_0": null, "close_1": null, "close_2": null, "close_4": null, "close_5": null, "close_6": null, "close_3": null }, "geometry": { "type": "Point", "coordinates": [ -75.128767, 39.9805516 ] } },
{ "type": "Feature", "properties": { "name": "Philly Home Girls - Elfant Wissahickon Realtors", "place_id": "ChIJswdxvIXIxokR7S-LlPskwRI", "vicinity": "2006 Frankford Avenue, Philadelphia", "types": "c(\"point_of_interest\", \"establishment\")", "business_status": "OPERATIONAL", "weekday_text": "Monday: 9:00 AM – 5:00 PM; Tuesday: 9:00 AM – 5:00 PM; Wednesday: 9:00 AM – 5:00 PM; Thursday: 9:00 AM – 5:00 PM; Friday: 9:00 AM – 5:00 PM; Saturday: Closed; Sunday: Closed", "open_24h": false, "open_0": null, "open_1": "0900", "open_2": "0900", "open_4": "0900", "open_5": "0900", "open_6": null, "open_3": "0900", "close_0": null, "close_1": "1700", "close_2": "1700", "close_4": "1700", "close_5": "1700", "close_6": null, "close_3": "1700" }, "geometry": { "type": "Point", "coordinates": [ -75.1303225, 39.9789009 ] } },
{ "type": "Feature", "properties": { "name": "Philly Music Lessons", "place_id": "ChIJX8PoUxXIxokRWmljf_60dDU", "vicinity": "2111 East Susquehanna Avenue, Philadelphia", "types": "c(\"school\", \"point_of_interest\", \"establishment\")", "business_status": "OPERATIONAL", "weekday_text": "Monday: 9:00 AM – 9:00 PM; Tuesday: 9:00 AM – 9:00 PM; Wednesday: 9:00 AM – 9:00 PM; Thursday: 9:00 AM – 9:00 PM; Friday: 9:00 AM – 9:00 PM; Saturday: 9:00 AM – 5:00 PM; Sunday: 9:00 AM – 5:00 PM", "open_24h": false, "open_0": "0900", "open_1": "0900", "open_2": "0900", "open_4": "0900", "open_5": "0900", "open_6": "0900", "open_3": "0900", "close_0": "1700", "close_1": "2100", "close_2": "2100", "close_4": "2100", "close_5": "2100", "close_6": "1700", "close_3": "2100" }, "geometry": { "type": "Point", "coordinates": [ -75.1304778, 39.9810199 ] } },
{ "type": "Feature", "properties": { "name": "Picnic", "place_id": "ChIJZcfPCwDJxokRdkFL1BVH-ts", "vicinity": "2421 Martha Street, Philadelphia", "types": "c(\"restaurant\", \"food\", \"point_of_interest\", \"establishment\")", "business_status": "OPERATIONAL", "weekday_text": "Monday: 5:00 – 9:30 PM; Tuesday: 5:00 – 9:30 PM; Wednesday: 5:00 – 9:30 PM; Thursday: 5:00 – 9:30 PM; Friday: 5:00 – 10:00 PM; Saturday: 12:00 – 10:00 PM; Sunday: 12:00 – 9:00 PM", "open_24h": false, "open_0": "1200", "open_1": "1700", "open_2": "1700", "open_4": "1700", "open_5": "1700", "open_6": "1200", "open_3": "1700", "close_0": "2100", "close_1": "2130", "close_2": "2130", "close_4": "2130", "close_5": "2200", "close_6": "2200", "close_3": "2130" }, "geometry": { "type": "Point", "coordinates": [ -75.1275127, 39.9822813 ] } },
{ "type": "Feature", "properties": { "name": "Pink Promises & DME", "place_id": "ChIJtbzU1xHJxokRFT2im-aUHcY", "vicinity": "2101 East Dauphin Street, Philadelphia", "types": "c(\"health\", \"store\", \"point_of_interest\", \"establishment\")", "business_status": "OPERATIONAL", "weekday_text": "Monday: 9:00 AM – 5:00 PM; Tuesday: 9:00 AM – 5:00 PM; Wednesday: 9:00 AM – 5:00 PM; Thursday: 9:00 AM – 5:00 PM; Friday: 9:00 AM – 5:00 PM; Saturday: Closed; Sunday: Closed", "open_24h": false, "open_0": null, "open_1": "0900", "open_2": "0900", "open_4": "0900", "open_5": "0900", "open_6": null, "open_3": "0900", "close_0": null, "close_1": "1700", "close_2": "1700", "close_4": "1700", "close_5": "1700", "close_6": null, "close_3": "1700" }, "geometry": { "type": "Point", "coordinates": [ -75.1295322, 39.9818806 ] } },
{ "type": "Feature", "properties": { "name": "Ponder", "place_id": "ChIJq3u0dHPJxokRwdLzP2nbU7Q", "vicinity": "2532 Coral Street, Philadelphia", "types": "c(\"bar\", \"point_of_interest\", \"establishment\")", "business_status": "OPERATIONAL", "weekday_text": "Monday: 4:00 PM – 1:00 AM; Tuesday: 4:00 PM – 1:00 AM; Wednesday: 4:00 PM – 1:00 AM; Thursday: 4:00 PM – 1:00 AM; Friday: 4:00 PM – 1:00 AM; Saturday: 12:00 PM – 1:00 AM; Sunday: 12:00 PM – 1:00 AM", "open_24h": false, "open_0": "1200", "open_1": "1600", "open_2": "1600", "open_4": "1600", "open_5": "1600", "open_6": "1200", "open_3": "1600", "close_0": "0100", "close_1": "0100", "close_2": "0100", "close_4": "0100", "close_5": "0100", "close_6": "0100", "close_3": "0100" }, "geometry": { "type": "Point", "coordinates": [ -75.1260704, 39.985271 ] } },
{ "type": "Feature", "properties": { "name": "Post Haste", "place_id": "ChIJN65h1CPJxokR-O5SYLfp5zs", "vicinity": "2519 Frankford Avenue, Philadelphia", "types": "c(\"restaurant\", \"food\", \"point_of_interest\", \"establishment\")", "business_status": "OPERATIONAL", "weekday_text": "Monday: Closed; Tuesday: Closed; Wednesday: 5:00 PM – 12:00 AM; Thursday: 5:00 PM – 12:00 AM; Friday: 5:00 PM – 12:00 AM; Saturday: 5:00 PM – 12:00 AM; Sunday: 5:00 – 10:00 PM", "open_24h": true, "open_0": "1700;1700", "open_1": null, "open_2": null, "open_4": "1700", "open_5": "1700", "open_6": "1700", "open_3": "1700", "close_0": "2200;0000", "close_1": null, "close_2": null, "close_4": "0000", "close_5": "0000", "close_6": "0000", "close_3": "NA" }, "geometry": { "type": "Point", "coordinates": [ -75.1251895, 39.9835267 ] } },
{ "type": "Feature", "properties": { "name": "Proper Goods", "place_id": "ChIJw4pPb2LJxokRGYmaI0CClOw", "vicinity": "2032 Frankford Avenue, Philadelphia", "types": "c(\"home_goods_store\", \"store\", \"point_of_interest\", \"establishment\")", "business_status": "OPERATIONAL", "weekday_text": "Monday: Closed; Tuesday: Closed; Wednesday: 12:00 – 6:00 PM; Thursday: 12:00 – 6:00 PM; Friday: 12:00 – 6:00 PM; Saturday: 11:00 AM – 6:00 PM; Sunday: 11:00 AM – 5:00 PM", "open_24h": false, "open_0": "1100", "open_1": null, "open_2": null, "open_4": "1200", "open_5": "1200", "open_6": "1100", "open_3": "1200", "close_0": "1700", "close_1": null, "close_2": null, "close_4": "1800", "close_5": "1800", "close_6": "1800", "close_3": "1800" }, "geometry": { "type": "Point", "coordinates": [ -75.1300341, 39.979396 ] } },
{ "type": "Feature", "properties": { "name": "Quick Stop", "place_id": "ChIJ72wVqDzIxokRFzIw91Y-6Dw", "vicinity": "2518 Frankford Avenue, Philadelphia", "types": "c(\"meal_takeaway\", \"convenience_store\", \"restaurant\", \"food\", \"store\", \"point_of_interest\", \"establishment\")", "business_status": null, "weekday_text": null, "open_24h": null, "open_0": null, "open_1": null, "open_2": null, "open_4": null, "open_5": null, "open_6": null, "open_3": null, "close_0": null, "close_1": null, "close_2": null, "close_4": null, "close_5": null, "close_6": null, "close_3": null }, "geometry": { "type": "Point", "coordinates": [ -75.1255155, 39.9838708 ] } },
{ "type": "Feature", "properties": { "name": "Quite", "place_id": "ChIJa8BohKXJxokRkfVUzFodT9g", "vicinity": "2211 Amber Street, Philadelphia", "types": "c(\"store\", \"point_of_interest\", \"establishment\")", "business_status": null, "weekday_text": null, "open_24h": null, "open_0": null, "open_1": null, "open_2": null, "open_4": null, "open_5": null, "open_6": null, "open_3": null, "close_0": null, "close_1": null, "close_2": null, "close_4": null, "close_5": null, "close_6": null, "close_3": null }, "geometry": { "type": "Point", "coordinates": [ -75.1304554, 39.9813519 ] } },
{ "type": "Feature", "properties": { "name": "Riverwards Produce Market", "place_id": "ChIJ4UB3zz_IxokRWAu-YmagWYI", "vicinity": "2200 East Norris Street #1906, Philadelphia", "types": "c(\"grocery_or_supermarket\", \"food\", \"store\", \"point_of_interest\", \"establishment\")", "business_status": "OPERATIONAL", "weekday_text": "Monday: 8:00 AM – 8:00 PM; Tuesday: 8:00 AM – 8:00 PM; Wednesday: 8:00 AM – 8:00 PM; Thursday: 8:00 AM – 8:00 PM; Friday: 8:00 AM – 8:00 PM; Saturday: 8:00 AM – 8:00 PM; Sunday: 8:00 AM – 8:00 PM", "open_24h": false, "open_0": "0800", "open_1": "0800", "open_2": "0800", "open_4": "0800", "open_5": "0800", "open_6": "0800", "open_3": "0800", "close_0": "2000", "close_1": "2000", "close_2": "2000", "close_4": "2000", "close_5": "2000", "close_6": "2000", "close_3": "2000" }, "geometry": { "type": "Point", "coordinates": [ -75.1299388, 39.978187 ] } },
{ "type": "Feature", "properties": { "name": "Runehammer", "place_id": "ChIJwfrBmV3JxokRic1B-TISnwk", "vicinity": "2401 Frankford Avenue, Philadelphia", "types": "c(\"store\", \"point_of_interest\", \"establishment\")", "business_status": "OPERATIONAL", "weekday_text": "Monday: Closed; Tuesday: Closed; Wednesday: 12:00 – 6:00 PM; Thursday: 12:00 – 6:00 PM; Friday: 12:00 – 6:00 PM; Saturday: 11:00 AM – 6:00 PM; Sunday: 11:00 AM – 5:00 PM", "open_24h": false, "open_0": "1100", "open_1": null, "open_2": null, "open_4": "1200", "open_5": "1200", "open_6": "1100", "open_3": "1200", "close_0": "1700", "close_1": null, "close_2": null, "close_4": "1800", "close_5": "1800", "close_6": "1800", "close_3": "1800" }, "geometry": { "type": "Point", "coordinates": [ -75.1272687, 39.9816303 ] } },
{ "type": "Feature", "properties": { "name": "Schweizer Fire Protection Co Inc", "place_id": "ChIJxZDMpzzIxokRV6Ax6WkqSPk", "vicinity": "2517 Frankford Avenue, Philadelphia", "types": "c(\"plumber\", \"point_of_interest\", \"establishment\")", "business_status": "OPERATIONAL", "weekday_text": "Monday: 8:00 AM – 5:00 PM; Tuesday: 8:00 AM – 5:00 PM; Wednesday: 8:00 AM – 5:00 PM; Thursday: 8:00 AM – 5:00 PM; Friday: 8:00 AM – 5:00 PM; Saturday: Closed; Sunday: Closed", "open_24h": false, "open_0": null, "open_1": "0800", "open_2": "0800", "open_4": "0800", "open_5": "0800", "open_6": null, "open_3": "0800", "close_0": null, "close_1": "1700", "close_2": "1700", "close_4": "1700", "close_5": "1700", "close_6": null, "close_3": "1700" }, "geometry": { "type": "Point", "coordinates": [ -75.1255578, 39.9833969 ] } },
{ "type": "Feature", "properties": { "name": "Sepviva Deli Store", "place_id": "ChIJn-oXDDvIxokR3JN2k131H5w", "vicinity": "2519 Sepviva Street, Philadelphia", "types": "c(\"grocery_or_supermarket\", \"convenience_store\", \"cafe\", \"atm\", \"finance\", \"food\", \"store\", \"point_of_interest\", \"establishment\")", "business_status": "OPERATIONAL", "weekday_text": "Monday: 8:00 AM – 8:00 PM; Tuesday: 8:00 AM – 8:00 PM; Wednesday: 8:00 AM – 8:00 PM; Thursday: 8:00 AM – 8:00 PM; Friday: 8:00 AM – 8:00 PM; Saturday: 9:00 AM – 8:00 PM; Sunday: 9:00 AM – 6:00 PM", "open_24h": false, "open_0": "0900", "open_1": "0800", "open_2": "0800", "open_4": "0800", "open_5": "0800", "open_6": "0900", "open_3": "0800", "close_0": "1800", "close_1": "2000", "close_2": "2000", "close_4": "2000", "close_5": "2000", "close_6": "2000", "close_3": "2000" }, "geometry": { "type": "Point", "coordinates": [ -75.1236175, 39.9819349 ] } },
{ "type": "Feature", "properties": { "name": "Seven Swords Tattoo Company", "place_id": "ChIJrdR3vCTIxokRD1evjCLCovQ", "vicinity": "2580 Frankford Avenue, Philadelphia", "types": "c(\"store\", \"point_of_interest\", \"establishment\")", "business_status": "OPERATIONAL", "weekday_text": "Monday: 12:00 – 6:00 PM; Tuesday: 12:00 – 6:00 PM; Wednesday: 12:00 – 6:00 PM; Thursday: 12:00 – 6:00 PM; Friday: 12:00 – 8:00 PM; Saturday: 12:00 – 8:00 PM; Sunday: 12:00 – 6:00 PM", "open_24h": false, "open_0": "1200", "open_1": "1200", "open_2": "1200", "open_4": "1200", "open_5": "1200", "open_6": "1200", "open_3": "1200", "close_0": "1800", "close_1": "1800", "close_2": "1800", "close_4": "1800", "close_5": "2000", "close_6": "2000", "close_3": "1800" }, "geometry": { "type": "Point", "coordinates": [ -75.1242935, 39.9851482 ] } },
{ "type": "Feature", "properties": { "name": "Sit Stay Coffee", "place_id": "ChIJWThkbPHJxokRqpsZPy7WNF4", "vicinity": "2236 Frankford Avenue, Philadelphia", "types": "c(\"cafe\", \"food\", \"store\", \"point_of_interest\", \"establishment\")", "business_status": null, "weekday_text": null, "open_24h": null, "open_0": null, "open_1": null, "open_2": null, "open_4": null, "open_5": null, "open_6": null, "open_3": null, "close_0": null, "close_1": null, "close_2": null, "close_4": null, "close_5": null, "close_6": null, "close_3": null }, "geometry": { "type": "Point", "coordinates": [ -75.1288108, 39.9805181 ] } },
{ "type": "Feature", "properties": { "name": "St. Michael's Lutheran Church - Kensington", "place_id": "ChIJTbsXezvIxokRoULRQo0ELlY", "vicinity": "2139 East Cumberland Street, Philadelphia", "types": "c(\"church\", \"place_of_worship\", \"point_of_interest\", \"establishment\")", "business_status": "OPERATIONAL", "weekday_text": "Monday: Closed; Tuesday: 10:00 AM – 3:00 PM; Wednesday: Closed; Thursday: 10:00 AM – 3:00 PM; Friday: Closed; Saturday: Closed; Sunday: 8:30 – 11:00 AM", "open_24h": false, "open_0": "0830", "open_1": null, "open_2": "1000", "open_4": "1000", "open_5": null, "open_6": null, "open_3": null, "close_0": "1100", "close_1": null, "close_2": "1500", "close_4": "1500", "close_5": null, "close_6": null, "close_3": null }, "geometry": { "type": "Point", "coordinates": [ -75.1246548, 39.9823373 ] } },
{ "type": "Feature", "properties": { "name": "St. Oner's", "place_id": "ChIJ0YESbLDJxokRgaJstPdn8Bs", "vicinity": "2218 Frankford Avenue, Philadelphia", "types": "c(\"bar\", \"point_of_interest\", \"establishment\")", "business_status": "OPERATIONAL", "weekday_text": "Monday: Closed; Tuesday: Closed; Wednesday: 4:00 – 10:00 PM; Thursday: 4:00 – 10:00 PM; Friday: 4:00 – 11:00 PM; Saturday: 12:00 – 11:00 PM; Sunday: 12:00 – 9:00 PM", "open_24h": false, "open_0": "1200", "open_1": null, "open_2": null, "open_4": "1600", "open_5": "1600", "open_6": "1200", "open_3": "1600", "close_0": "2100", "close_1": null, "close_2": null, "close_4": "2200", "close_5": "2300", "close_6": "2300", "close_3": "2200" }, "geometry": { "type": "Point", "coordinates": [ -75.1291919, 39.980133 ] } },
{ "type": "Feature", "properties": { "name": "Starboard Side Tavern", "place_id": "ChIJkfcnOj_IxokRnjE8FqhgnOM", "vicinity": "2500 East Norris Street, Philadelphia", "types": "c(\"bar\", \"point_of_interest\", \"establishment\")", "business_status": "OPERATIONAL", "weekday_text": "Monday: 10:00 AM – 2:00 AM; Tuesday: 10:00 AM – 2:00 AM; Wednesday: 10:00 AM – 2:00 AM; Thursday: 10:00 AM – 2:00 AM; Friday: 10:00 AM – 2:00 AM; Saturday: 10:00 AM – 2:00 AM; Sunday: 10:00 AM – 2:00 AM", "open_24h": false, "open_0": "1000", "open_1": "1000", "open_2": "1000", "open_4": "1000", "open_5": "1000", "open_6": "1000", "open_3": "1000", "close_0": "0200", "close_1": "0200", "close_2": "0200", "close_4": "0200", "close_5": "0200", "close_6": "0200", "close_3": "0200" }, "geometry": { "type": "Point", "coordinates": [ -75.1261173, 39.9759749 ] } },
{ "type": "Feature", "properties": { "name": "Star|Bolt", "place_id": "ChIJL0zqOKDJxokR6MLxYd5Qzq8", "vicinity": "1936 North Front Street, Philadelphia", "types": "c(\"restaurant\", \"bar\", \"food\", \"point_of_interest\", \"establishment\")", "business_status": "OPERATIONAL", "weekday_text": "Monday: 4:00 PM – 12:00 AM; Tuesday: 4:00 PM – 12:00 AM; Wednesday: 4:00 PM – 12:00 AM; Thursday: 4:00 PM – 12:00 AM; Friday: 4:00 PM – 2:00 AM; Saturday: 4:00 PM – 2:00 AM; Sunday: 4:00 PM – 12:00 AM", "open_24h": false, "open_0": "1600", "open_1": "1600", "open_2": "1600", "open_4": "1600", "open_5": "1600", "open_6": "1600", "open_3": "1600", "close_0": "0200", "close_1": "0000", "close_2": "0000", "close_4": "0000", "close_5": "0000", "close_6": "0200", "close_3": "0000" }, "geometry": { "type": "Point", "coordinates": [ -75.1334465, 39.9796021 ] } },
{ "type": "Feature", "properties": { "name": "Stein Philip C DDS", "place_id": "ChIJyX8vnDzIxokRrDuSviMGr4E", "vicinity": "2132 East Cumberland Street, Philadelphia", "types": "c(\"dentist\", \"doctor\", \"health\", \"point_of_interest\", \"establishment\")", "business_status": null, "weekday_text": null, "open_24h": null, "open_0": null, "open_1": null, "open_2": null, "open_4": null, "open_5": null, "open_6": null, "open_3": null, "close_0": null, "close_1": null, "close_2": null, "close_4": null, "close_5": null, "close_6": null, "close_3": null }, "geometry": { "type": "Point", "coordinates": [ -75.1256615, 39.982717199999989 ] } },
{ "type": "Feature", "properties": { "name": "Sunny Crochet Dolls", "place_id": "ChIJPbC1LTzIxokR0xpeMePjmHA", "vicinity": "2155 East Dauphin Street, Philadelphia", "types": "c(\"store\", \"point_of_interest\", \"establishment\")", "business_status": null, "weekday_text": null, "open_24h": null, "open_0": null, "open_1": null, "open_2": null, "open_4": null, "open_5": null, "open_6": null, "open_3": null, "close_0": null, "close_1": null, "close_2": null, "close_4": null, "close_5": null, "close_6": null, "close_3": null }, "geometry": { "type": "Point", "coordinates": [ -75.1280036, 39.9801961 ] } },
{ "type": "Feature", "properties": { "name": "Tejada Grocery", "place_id": "ChIJffHtEj3IxokRGqYlRcCo_1I", "vicinity": "2036 East York Street, Philadelphia", "types": "c(\"grocery_or_supermarket\", \"food\", \"store\", \"point_of_interest\", \"establishment\")", "business_status": "OPERATIONAL", "weekday_text": "Monday: 7:00 AM – 9:00 PM; Tuesday: 7:00 AM – 9:00 PM; Wednesday: 7:00 AM – 9:00 PM; Thursday: 7:00 AM – 9:00 PM; Friday: 7:00 AM – 9:00 PM; Saturday: 7:00 AM – 9:00 PM; Sunday: 7:00 AM – 9:00 PM", "open_24h": false, "open_0": "0700", "open_1": "0700", "open_2": "0700", "open_4": "0700", "open_5": "0700", "open_6": "0700", "open_3": "0700", "close_0": "2100", "close_1": "2100", "close_2": "2100", "close_4": "2100", "close_5": "2100", "close_6": "2100", "close_3": "2100" }, "geometry": { "type": "Point", "coordinates": [ -75.1293808, 39.9832812 ] } },
{ "type": "Feature", "properties": { "name": "The Cargo7 Boutique", "place_id": "ChIJkac_lerJxokR9ECKPG5AAuc", "vicinity": "2568 Frankford Avenue, Philadelphia", "types": "c(\"clothing_store\", \"store\", \"point_of_interest\", \"establishment\")", "business_status": null, "weekday_text": null, "open_24h": null, "open_0": null, "open_1": null, "open_2": null, "open_4": null, "open_5": null, "open_6": null, "open_3": null, "close_0": null, "close_1": null, "close_2": null, "close_4": null, "close_5": null, "close_6": null, "close_3": null }, "geometry": { "type": "Point", "coordinates": [ -75.124624, 39.9849122 ] } },
{ "type": "Feature", "properties": { "name": "The End Times Boutique", "place_id": "ChIJHds6-ZDJxokRLJjf20nHa_M", "vicinity": "2152 East Dauphin Street, Philadelphia", "types": "c(\"home_goods_store\", \"store\", \"point_of_interest\", \"establishment\")", "business_status": "OPERATIONAL", "weekday_text": "Monday: Closed; Tuesday: Closed; Wednesday: Closed; Thursday: 2:00 – 8:00 PM; Friday: 12:00 – 8:00 PM; Saturday: 12:00 – 8:00 PM; Sunday: 12:00 – 8:00 PM", "open_24h": false, "open_0": "1200", "open_1": null, "open_2": null, "open_4": "1400", "open_5": "1200", "open_6": "1200", "open_3": null, "close_0": "2000", "close_1": null, "close_2": null, "close_4": "2000", "close_5": "2000", "close_6": "2000", "close_3": null }, "geometry": { "type": "Point", "coordinates": [ -75.1281815, 39.9799781 ] } },
{ "type": "Feature", "properties": { "name": "The Monkey Club", "place_id": "ChIJFUvEAT3IxokR2SB37KMfCxM", "vicinity": "2101 East York Street, Philadelphia", "types": "c(\"bar\", \"point_of_interest\", \"establishment\")", "business_status": "OPERATIONAL", "weekday_text": "Monday: 4:00 PM – 2:00 AM; Tuesday: 4:00 PM – 2:00 AM; Wednesday: 4:00 PM – 2:00 AM; Thursday: 4:00 PM – 2:00 AM; Friday: 4:00 PM – 2:00 AM; Saturday: 12:00 PM – 2:00 AM; Sunday: 12:00 PM – 2:00 AM", "open_24h": false, "open_0": "1200", "open_1": "1600", "open_2": "1600", "open_4": "1600", "open_5": "1600", "open_6": "1200", "open_3": "1600", "close_0": "0200", "close_1": "0200", "close_2": "0200", "close_4": "0200", "close_5": "0200", "close_6": "0200", "close_3": "0200" }, "geometry": { "type": "Point", "coordinates": [ -75.1283333, 39.9825 ] } },
{ "type": "Feature", "properties": { "name": "The Nut Hut Saloon", "place_id": "ChIJLw6FJgDJxokR7Xbj3rkqzA8", "vicinity": "Frankford Av &, East Norris Street, Philadelphia", "types": "c(\"bar\", \"point_of_interest\", \"establishment\")", "business_status": "OPERATIONAL", "weekday_text": "Monday: 4:00 PM – 12:00 AM; Tuesday: 4:00 PM – 12:00 AM; Wednesday: 11:00 AM – 12:00 AM; Thursday: 11:00 AM – 2:00 AM; Friday: 11:00 AM – 2:00 AM; Saturday: 11:00 AM – 2:00 AM; Sunday: 11:00 AM – 12:00 AM", "open_24h": false, "open_0": "1100", "open_1": "1600", "open_2": "1600", "open_4": "1100", "open_5": "1100", "open_6": "1100", "open_3": "1100", "close_0": "0200", "close_1": "0000", "close_2": "0000", "close_4": "0000", "close_5": "0200", "close_6": "0200", "close_3": "0000" }, "geometry": { "type": "Point", "coordinates": [ -75.1303639, 39.9784463 ] } },
{ "type": "Feature", "properties": { "name": "The Slider Company", "place_id": "ChIJNVtuUtn9xokR2CF3z7wBhlo", "vicinity": "2043 Frankford Avenue, Philadelphia", "types": "c(\"meal_takeaway\", \"restaurant\", \"food\", \"point_of_interest\", \"establishment\")", "business_status": null, "weekday_text": null, "open_24h": null, "open_0": null, "open_1": null, "open_2": null, "open_4": null, "open_5": null, "open_6": null, "open_3": null, "close_0": null, "close_1": null, "close_2": null, "close_4": null, "close_5": null, "close_6": null, "close_3": null }, "geometry": { "type": "Point", "coordinates": [ -75.129425, 39.979361 ] } },
{ "type": "Feature", "properties": { "name": "Thunderbird Salvage", "place_id": "ChIJi0ZIPnTIxokRJs7oD6BPmXs", "vicinity": "2441 Frankford Avenue, Philadelphia", "types": "c(\"store\", \"point_of_interest\", \"establishment\")", "business_status": "OPERATIONAL", "weekday_text": "Monday: 9:00 AM – 7:00 PM; Tuesday: 9:00 AM – 7:00 PM; Wednesday: 9:00 AM – 7:00 PM; Thursday: 9:00 AM – 7:00 PM; Friday: 9:00 AM – 7:00 PM; Saturday: 9:00 AM – 7:00 PM; Sunday: 9:00 AM – 7:00 PM", "open_24h": false, "open_0": "0900", "open_1": "0900", "open_2": "0900", "open_4": "0900", "open_5": "0900", "open_6": "0900", "open_3": "0900", "close_0": "1900", "close_1": "1900", "close_2": "1900", "close_4": "1900", "close_5": "1900", "close_6": "1900", "close_3": "1900" }, "geometry": { "type": "Point", "coordinates": [ -75.1262826, 39.9826085 ] } },
{ "type": "Feature", "properties": { "name": "Tulip Pasta & Wine Bar", "place_id": "ChIJ_VBGwU3JxokRyT3O2wCEqN0", "vicinity": "2302 East Norris Street, Philadelphia", "types": "c(\"restaurant\", \"food\", \"point_of_interest\", \"establishment\")", "business_status": "OPERATIONAL", "weekday_text": "Monday: Closed; Tuesday: 5:00 – 9:00 PM; Wednesday: 5:00 – 9:00 PM; Thursday: 5:00 – 9:00 PM; Friday: 5:00 – 10:00 PM; Saturday: 5:00 – 10:00 PM; Sunday: Closed", "open_24h": false, "open_0": null, "open_1": null, "open_2": "1700", "open_4": "1700", "open_5": "1700", "open_6": "1700", "open_3": "1700", "close_0": null, "close_1": null, "close_2": "2100", "close_4": "2100", "close_5": "2200", "close_6": "2200", "close_3": "2100" }, "geometry": { "type": "Point", "coordinates": [ -75.1295112, 39.9778792 ] } },
{ "type": "Feature", "properties": { "name": "Two Percent To Glory", "place_id": "ChIJcYIebT7IxokRn_OV2scWdMw", "vicinity": "2031 Frankford Avenue, Philadelphia", "types": "c(\"furniture_store\", \"home_goods_store\", \"clothing_store\", \"store\", \"point_of_interest\", \"establishment\")", "business_status": null, "weekday_text": null, "open_24h": null, "open_0": null, "open_1": null, "open_2": null, "open_4": null, "open_5": null, "open_6": null, "open_3": null, "close_0": null, "close_1": null, "close_2": null, "close_4": null, "close_5": null, "close_6": null, "close_3": null }, "geometry": { "type": "Point", "coordinates": [ -75.1296024, 39.979186 ] } },
{ "type": "Feature", "properties": { "name": "Urban Exchange Project", "place_id": "ChIJI6XbCz7IxokRjdnOtaYFpTE", "vicinity": "1868 Frankford Avenue, Philadelphia", "types": "c(\"clothing_store\", \"store\", \"point_of_interest\", \"establishment\")", "business_status": "OPERATIONAL", "weekday_text": "Monday: 11:00 AM – 7:00 PM; Tuesday: 11:00 AM – 7:00 PM; Wednesday: 11:00 AM – 7:00 PM; Thursday: 11:00 AM – 7:00 PM; Friday: 11:00 AM – 7:00 PM; Saturday: 11:00 AM – 7:00 PM; Sunday: 11:00 AM – 6:00 PM", "open_24h": false, "open_0": "1100", "open_1": "1100", "open_2": "1100", "open_4": "1100", "open_5": "1100", "open_6": "1100", "open_3": "1100", "close_0": "1800", "close_1": "1900", "close_2": "1900", "close_4": "1900", "close_5": "1900", "close_6": "1900", "close_3": "1900" }, "geometry": { "type": "Point", "coordinates": [ -75.130775, 39.9785365 ] } },
{ "type": "Feature", "properties": { "name": "Urbansawn", "place_id": "ChIJh6EkdDvIxokREXhlpmkihd4", "vicinity": "2504 Sepviva Street, Philadelphia", "types": "c(\"point_of_interest\", \"establishment\")", "business_status": "OPERATIONAL", "weekday_text": "Monday: 9:00 AM – 5:30 PM; Tuesday: 9:00 AM – 5:30 PM; Wednesday: 9:00 AM – 5:30 PM; Thursday: 9:00 AM – 5:30 PM; Friday: 9:00 AM – 5:30 PM; Saturday: Closed; Sunday: Closed", "open_24h": false, "open_0": null, "open_1": "0900", "open_2": "0900", "open_4": "0900", "open_5": "0900", "open_6": null, "open_3": "0900", "close_0": null, "close_1": "1730", "close_2": "1730", "close_4": "1730", "close_5": "1730", "close_6": null, "close_3": "1730" }, "geometry": { "type": "Point", "coordinates": [ -75.1241994, 39.9819589 ] } },
{ "type": "Feature", "properties": { "name": "VESTIGE", "place_id": "ChIJA0URcj7IxokRn7n7PVRVKWA", "vicinity": "2041 Frankford Avenue, Philadelphia", "types": "c(\"clothing_store\", \"store\", \"point_of_interest\", \"establishment\")", "business_status": "OPERATIONAL", "weekday_text": "Monday: Closed; Tuesday: 11:00 AM – 6:00 PM; Wednesday: 11:00 AM – 7:00 PM; Thursday: 11:00 AM – 6:00 PM; Friday: 11:00 AM – 6:00 PM; Saturday: 11:00 AM – 6:00 PM; Sunday: 11:00 AM – 6:00 PM", "open_24h": false, "open_0": "1100", "open_1": null, "open_2": "1100", "open_4": "1100", "open_5": "1100", "open_6": "1100", "open_3": "1100", "close_0": "1800", "close_1": null, "close_2": "1800", "close_4": "1800", "close_5": "1800", "close_6": "1800", "close_3": "1900" }, "geometry": { "type": "Point", "coordinates": [ -75.1294767, 39.97936 ] } },
{ "type": "Feature", "properties": { "name": "Valerio Coffee Roasters", "place_id": "ChIJBUF8QADJxokRYSjvK1T5FuU", "vicinity": "2331 Frankford Avenue, Philadelphia", "types": "c(\"cafe\", \"food\", \"store\", \"point_of_interest\", \"establishment\")", "business_status": "OPERATIONAL", "weekday_text": "Monday: 8:00 AM – 2:30 PM; Tuesday: 8:00 AM – 2:30 PM; Wednesday: 8:00 AM – 2:30 PM; Thursday: 8:00 AM – 2:30 PM; Friday: 8:00 AM – 2:30 PM; Saturday: 8:00 AM – 4:00 PM; Sunday: 8:00 AM – 4:00 PM", "open_24h": false, "open_0": "0800", "open_1": "0800", "open_2": "0800", "open_4": "0800", "open_5": "0800", "open_6": "0800", "open_3": "0800", "close_0": "1600", "close_1": "1430", "close_2": "1430", "close_4": "1430", "close_5": "1430", "close_6": "1600", "close_3": "1430" }, "geometry": { "type": "Point", "coordinates": [ -75.1277651, 39.9810528 ] } },
{ "type": "Feature", "properties": { "name": "Vessel Coffee Collective", "place_id": "ChIJdToKGkzJxokRYc_Nvn8AQL8", "vicinity": "2401 Frankford Avenue, Philadelphia", "types": "c(\"cafe\", \"food\", \"store\", \"point_of_interest\", \"establishment\")", "business_status": "OPERATIONAL", "weekday_text": "Monday: 7:00 AM – 3:00 PM; Tuesday: 7:00 AM – 3:00 PM; Wednesday: 7:00 AM – 3:00 PM; Thursday: 7:00 AM – 3:00 PM; Friday: 7:00 AM – 3:00 PM; Saturday: 7:00 AM – 3:00 PM; Sunday: Closed", "open_24h": false, "open_0": null, "open_1": "0700", "open_2": "0700", "open_4": "0700", "open_5": "0700", "open_6": "0700", "open_3": "0700", "close_0": null, "close_1": "1500", "close_2": "1500", "close_4": "1500", "close_5": "1500", "close_6": "1500", "close_3": "1500" }, "geometry": { "type": "Point", "coordinates": [ -75.1272687, 39.9816303 ] } },
{ "type": "Feature", "properties": { "name": "Weldsale - The Leader in Welding Platens, Welding Tools, Welding Clamps, and Welding Supplies", "place_id": "ChIJl43rAz7IxokRcxH_6ADW7Y4", "vicinity": "2151 Dreer Street, Philadelphia", "types": "c(\"store\", \"point_of_interest\", \"establishment\")", "business_status": "OPERATIONAL", "weekday_text": "Monday: 8:30 AM – 5:00 PM; Tuesday: 8:30 AM – 5:00 PM; Wednesday: 8:30 AM – 5:00 PM; Thursday: 8:30 AM – 5:00 PM; Friday: 8:30 AM – 5:00 PM; Saturday: Closed; Sunday: Closed", "open_24h": false, "open_0": null, "open_1": "0830", "open_2": "0830", "open_4": "0830", "open_5": "0830", "open_6": null, "open_3": "0830", "close_0": null, "close_1": "1700", "close_2": "1700", "close_4": "1700", "close_5": "1700", "close_6": null, "close_3": "1700" }, "geometry": { "type": "Point", "coordinates": [ -75.1307855, 39.9798326 ] } },
{ "type": "Feature", "properties": { "name": "Yuhiro Omakase Sushi", "place_id": "ChIJYUIVJYzJxokRcXq_WyBt9KU", "vicinity": "2146 East Susquehanna Avenue, Philadelphia", "types": "c(\"restaurant\", \"food\", \"point_of_interest\", \"establishment\")", "business_status": "OPERATIONAL", "weekday_text": "Monday: Closed; Tuesday: Closed; Wednesday: 5:00 – 10:00 PM; Thursday: 5:00 – 10:00 PM; Friday: 5:00 – 11:00 PM; Saturday: 5:00 – 11:00 PM; Sunday: 5:00 – 10:00 PM", "open_24h": false, "open_0": "1700", "open_1": null, "open_2": null, "open_4": "1700", "open_5": "1700", "open_6": "1700", "open_3": "1700", "close_0": "2200", "close_1": null, "close_2": null, "close_4": "2200", "close_5": "2300", "close_6": "2300", "close_3": "2200" }, "geometry": { "type": "Point", "coordinates": [ -75.129856, 39.9798311 ] } },
{ "type": "Feature", "properties": { "name": "Zembo Temple of Skate and Design", "place_id": "ChIJDfpv_ObJxokRzrWpUArVy48", "vicinity": "2421 Frankford Avenue, Philadelphia", "types": "c(\"shoe_store\", \"store\", \"point_of_interest\", \"establishment\")", "business_status": "OPERATIONAL", "weekday_text": "Monday: Closed; Tuesday: 11:00 AM – 7:00 PM; Wednesday: 11:00 AM – 7:00 PM; Thursday: 11:00 AM – 7:00 PM; Friday: 11:00 AM – 7:00 PM; Saturday: 11:00 AM – 7:00 PM; Sunday: 11:00 AM – 5:00 PM", "open_24h": false, "open_0": "1100", "open_1": null, "open_2": "1100", "open_4": "1100", "open_5": "1100", "open_6": "1100", "open_3": "1100", "close_0": "1700", "close_1": null, "close_2": "1900", "close_4": "1900", "close_5": "1900", "close_6": "1900", "close_3": "1900" }, "geometry": { "type": "Point", "coordinates": [ -75.1268202, 39.9820202 ] } },
{ "type": "Feature", "properties": { "name": "Zig Zag BBQ", "place_id": "ChIJc7qhegTJxokRWWW8A3o8DdM", "vicinity": "2111 East York Street, Philadelphia", "types": "c(\"restaurant\", \"food\", \"point_of_interest\", \"establishment\")", "business_status": "OPERATIONAL", "weekday_text": "Monday: Closed; Tuesday: Closed; Wednesday: 3:30 – 9:00 PM; Thursday: 3:30 – 9:00 PM; Friday: 3:30 – 9:00 PM; Saturday: 12:00 – 9:00 PM; Sunday: 12:00 – 7:00 PM", "open_24h": false, "open_0": "1200", "open_1": null, "open_2": null, "open_4": "1530", "open_5": "1530", "open_6": "1200", "open_3": "1530", "close_0": "1900", "close_1": null, "close_2": null, "close_4": "2100", "close_5": "2100", "close_6": "2100", "close_3": "2100" }, "geometry": { "type": "Point", "coordinates": [ -75.1281429, 39.9822912 ] } },
{ "type": "Feature", "properties": { "name": "cult recordings", "place_id": "ChIJEdWzpVjJxokREj_DtOFGuBI", "vicinity": "2424 Coral Street, Philadelphia", "types": "c(\"store\", \"point_of_interest\", \"establishment\")", "business_status": "OPERATIONAL", "weekday_text": "Monday: 12:00 – 8:00 PM; Tuesday: 12:00 – 8:00 PM; Wednesday: 12:00 – 8:00 PM; Thursday: 12:00 – 8:00 PM; Friday: 12:00 – 8:00 PM; Saturday: 12:00 – 8:00 PM; Sunday: 12:00 – 8:00 PM", "open_24h": false, "open_0": "1200", "open_1": "1200", "open_2": "1200", "open_4": "1200", "open_5": "1200", "open_6": "1200", "open_3": "1200", "close_0": "2000", "close_1": "2000", "close_2": "2000", "close_4": "2000", "close_5": "2000", "close_6": "2000", "close_3": "2000" }, "geometry": { "type": "Point", "coordinates": [ -75.1284682, 39.9840354 ] } }
]
}
