{
"type": "FeatureCollection",
"name": "studyAreas2026",
"crs": { "type": "name", "properties": { "name": "urn:ogc:def:crs:OGC:1.3:CRS84" } },
"features": [
{ "type": "Feature", "properties": { "Name": "U CITY WEST" }, "geometry": { "type": "Polygon", "coordinates": [ [ [ -75.19770014440104, 39.95530325443503, 0.0 ], [ -75.197982789423719, 39.953260427573028, 0.0 ], [ -75.202081140905122, 39.953755664243495, 0.0 ], [ -75.202659286740513, 39.951394592461121, 0.0 ], [ -75.203719916816695, 39.951552939313288, 0.0 ], [ -75.2023901757359, 39.957222626103842, 0.0 ], [ -75.201525862583594, 39.957122872084447, 0.0 ], [ -75.201782584922128, 39.955778949142463, 0.0 ], [ -75.19770014440104, 39.95530325443503, 0.0 ] ] ] } },
{ "type": "Feature", "properties": { "Name": "RITTENHOUSE SQUARE" }, "geometry": { "type": "Polygon", "coordinates": [ [ [ -75.173495241191389, 39.952058226541517, 0.0 ], [ -75.168766187938914, 39.951454022672067, 0.0 ], [ -75.16963188898832, 39.947561237188808, 0.0 ], [ -75.17436094224081, 39.948185286454823, 0.0 ], [ -75.173495241191389, 39.952058226541517, 0.0 ] ] ] } },
{ "type": "Feature", "properties": { "Name": "SPRING GARDEN EAST" }, "geometry": { "type": "Polygon", "coordinates": [ [ [ -75.144692000382889, 39.961398916734851, 0.0 ], [ -75.144866944589495, 39.960556226734575, 0.0 ], [ -75.148234861540345, 39.960833438549876, 0.0 ], [ -75.150340969808795, 39.96098199313159, 0.0 ], [ -75.15464363322009, 39.961269198062375, 0.0 ], [ -75.154527345408241, 39.962021868232249, 0.0 ], [ -75.148092731892717, 39.961873315221226, 0.0 ], [ -75.144692000382889, 39.961398916734851, 0.0 ] ] ] } },
{ "type": "Feature", "properties": { "Name": "FISHTOWN - KENSINGTON" }, "geometry": { "type": "Polygon", "coordinates": [ [ [ -75.131056511312792, 39.978915142015772, 0.0 ], [ -75.128391960856391, 39.981334519782948, 0.0 ], [ -75.129136205187805, 39.982367352078612, 0.0 ], [ -75.126150603137063, 39.984128463827417, 0.0 ], [ -75.124434544263281, 39.985505209087208, 0.0 ], [ -75.123444262155317, 39.985067667880593, 0.0 ], [ -75.124579775793592, 39.984040128212193, 0.0 ], [ -75.123526042982149, 39.98279809893701, 0.0 ], [ -75.127148887437585, 39.981039426792108, 0.0 ], [ -75.129889339247271, 39.978059431254223, 0.0 ], [ -75.131056511312792, 39.978915142015772, 0.0 ] ] ] } },
{ "type": "Feature", "properties": { "Name": "STADIUM DISTRICT" }, "geometry": { "type": "Polygon", "coordinates": [ [ [ -75.173640164599547, 39.905869207858629, 0.0 ], [ -75.173169341389453, 39.908019204091829, 0.0 ], [ -75.170455840834919, 39.907797985684262, 0.0 ], [ -75.169617353348727, 39.911260629630945, 0.0 ], [ -75.163289655521666, 39.909830647378648, 0.0 ], [ -75.164644803653644, 39.904200556014466, 0.0 ], [ -75.165624641948114, 39.899591755870773, 0.0 ], [ -75.171454545546979, 39.898932909266719, 0.0 ], [ -75.175169307418898, 39.899444027312434, 0.0 ], [ -75.173640164599547, 39.905869207858629, 0.0 ] ] ] } }
]
}
